{"type":"FeatureCollection","features":[{"type":"Feature","properties":{"cut":6101,"comuna":"RANCAGUA"},"geometry":{"type":"Polygon","coordinates":[[[-70.84586611599991,-34.02834227899996],[-70.85990539699992,-34.03084556299996],[-70.86437343299991,-34.03262167999992],[-70.87023374899991,-34.03743977599993],[-70.87680508699992,-34.037296056999935],[-70.88223219199995,-34.03982631899993],[-70.88832999899995,-34.03905999999995],[-70.89163202099991,-34.050817328999926],[-70.88937494699991,-34.052855536999914],[-70.88826740699994,-34.05796838099991],[-70.89131978899991,-34.061100876999944],[-70.89316040799991,-34.075619530999916],[-70.89993220499991,-34.078854107999916],[-70.90598008799992,-34.07623430199993],[-70.91326243099991,-34.07964894299994],[-70.9208225399999,-34.07834049399992],[-70.93483811899995,-34.08625050599994],[-70.93777046499991,-34.08935463599994],[-70.93723799999992,-34.092789231999916],[-70.93918781699995,-34.09564749599991],[-70.93798703099992,-34.100384722999934],[-70.94028221899993,-34.10230837699993],[-70.94151720099995,-34.10594732699991],[-70.93921690499991,-34.1083936199999],[-70.93880378799992,-34.113234546999934],[-70.93506201499991,-34.11677783299996],[-70.93513466699994,-34.122264386999916],[-70.93258786099994,-34.125411297999904],[-70.92929146799992,-34.1370628059999],[-70.91670365599992,-34.14098525499992],[-70.91231464299995,-34.14830421699992],[-70.90596173299991,-34.152439296999944],[-70.89423928899993,-34.153526349999936],[-70.89303471499994,-34.155809545999944],[-70.88790513599992,-34.157041859999936],[-70.88005440899991,-34.16421902999991],[-70.87014431099993,-34.17830640299991],[-70.85986190199992,-34.184738635999906],[-70.85883002999992,-34.1867023609999],[-70.84847753999992,-34.1916998449999],[-70.84265372899995,-34.1931277029999],[-70.83551527799995,-34.189672053999914],[-70.82625392699993,-34.18848418399995],[-70.81401575199993,-34.18985928899991],[-70.80358513699991,-34.18901852099992],[-70.79671676099991,-34.19185160099994],[-70.79052902899991,-34.18988491999994],[-70.7740034759999,-34.19117669499991],[-70.76952982899991,-34.190037196999924],[-70.7640605759999,-34.19243147099991],[-70.75570936499992,-34.19299505899994],[-70.74490070999991,-34.1996986069999],[-70.7355370169999,-34.2036979959999],[-70.73435408699993,-34.20716251399995],[-70.72939548799991,-34.21254247899992],[-70.71485491199991,-34.21701446299994],[-70.71478219999995,-34.212971453999955],[-70.72408404099991,-34.20711021899996],[-70.72331949199992,-34.20490125799995],[-70.71766940399993,-34.20147652999992],[-70.70967533999993,-34.193851612999936],[-70.7099787059999,-34.191149580999934],[-70.70778578799991,-34.18640491799994],[-70.69595210799991,-34.16953048699992],[-70.67680431499991,-34.161467641999934],[-70.67844550199993,-34.15983873399995],[-70.68022044799994,-34.15142389499994],[-70.68458881899994,-34.14186884499992],[-70.6907777049999,-34.13661291599993],[-70.69375621299992,-34.129389052999954],[-70.6963128459999,-34.12665759299995],[-70.69813176799994,-34.12670909399992],[-70.69918692199991,-34.12526976799995],[-70.7017383349999,-34.12584309399995],[-70.70444695499992,-34.124088301999905],[-70.70498233299992,-34.12213595399993],[-70.70920468699995,-34.12065830899991],[-70.70977932699992,-34.117481728999905],[-70.71225634599995,-34.11582562399991],[-70.71063950199994,-34.114176656999916],[-70.71114275799994,-34.11113213699991],[-70.71455855699992,-34.109154126999954],[-70.7156352639999,-34.105995391999954],[-70.73122123899992,-34.105475793999915],[-70.74842528499994,-34.11034930899996],[-70.7689938709999,-34.10963090999991],[-70.77665445299994,-34.112707868999905],[-70.78078086499994,-34.11239778099991],[-70.7841702419999,-34.11367192799992],[-70.78234259699991,-34.10806663499994],[-70.78576416899995,-34.10669974699994],[-70.78915999999992,-34.09946999999994],[-70.79653776299995,-34.09701866799992],[-70.79863217299993,-34.09176940499992],[-70.80427221499991,-34.08813629899993],[-70.80232867799992,-34.07794400999995],[-70.8036186089999,-34.07130476599991],[-70.80123618199991,-34.06342727099991],[-70.80218956699991,-34.05737369399992],[-70.80425239399995,-34.0542945869999],[-70.80428922199991,-34.04450872599995],[-70.80792511299995,-34.04160971199991],[-70.81542097899995,-34.039815103999956],[-70.81715963799991,-34.037931073999914],[-70.81719999899991,-34.034859999999924],[-70.82242436099995,-34.03621249699995],[-70.8300089949999,-34.032092776999946],[-70.84124393999991,-34.03231699499992],[-70.84586611599991,-34.02834227899996]]]}},{"type":"Feature","properties":{"cut":6102,"comuna":"CODEGUA"},"geometry":{"type":"Polygon","coordinates":[[[-70.36576265899993,-33.944218065999905],[-70.3682609839999,-33.93746002499995],[-70.3762678789999,-33.92795809099994],[-70.37670193899993,-33.92229502999993],[-70.37859477499995,-33.919042335999904],[-70.3838853979999,-33.927985933999935],[-70.38799289899993,-33.93196581299992],[-70.38719358599991,-33.93500487599994],[-70.38865810599992,-33.94039015099992],[-70.3853819389999,-33.95536537599992],[-70.3878806539999,-33.9593366979999],[-70.38786252499995,-33.96309288899994],[-70.39234238299991,-33.96862891099994],[-70.3948718019999,-33.97540881599991],[-70.39873041099992,-33.978656557999955],[-70.39988844699991,-33.98132622199995],[-70.39827801199993,-33.98550630999995],[-70.39965070199992,-33.99073912999995],[-70.39851922399993,-33.99667676899992],[-70.40256612099995,-33.99861011899992],[-70.40237653299994,-34.00016786899994],[-70.40504412599995,-34.00176966299995],[-70.40459737899994,-34.00605826499992],[-70.4097336559999,-34.01052196199993],[-70.41176666099994,-34.0141553869999],[-70.41829719399993,-34.013597784999945],[-70.42350534799994,-34.015282559999946],[-70.4307197519999,-34.01024352999991],[-70.44470397999993,-34.01168521499994],[-70.44785303799995,-34.01054349699996],[-70.45414123199993,-34.01098782699995],[-70.46062892099991,-34.00869256199991],[-70.46317454599995,-34.0098526509999],[-70.47522887699995,-34.009411050999915],[-70.48246368299993,-34.01291762999995],[-70.48808788799994,-34.012371757999915],[-70.4917163049999,-34.015317179999954],[-70.49490395799995,-34.01563466999994],[-70.49540964199991,-34.01739599799993],[-70.50089845299993,-34.020855053999924],[-70.50202630199993,-34.028375582999956],[-70.50407686099993,-34.03016758199993],[-70.50328347399994,-34.03124137499992],[-70.50446342899994,-34.03804883099991],[-70.50529748299994,-34.039580644999944],[-70.51058670299994,-34.04212187099995],[-70.51519622299992,-34.04110926399994],[-70.51708261599993,-34.03868729599992],[-70.54453143299992,-34.03663234599992],[-70.54892224199995,-34.03414754799991],[-70.55339906299992,-34.03335553099993],[-70.55888245999995,-34.02920227499993],[-70.56988695399991,-34.033723997999914],[-70.57935786999991,-34.03450223099992],[-70.58130212599991,-34.03310869899991],[-70.58690445099995,-34.03277253999994],[-70.6033937329999,-34.03715729399994],[-70.6232748889999,-34.035649924999916],[-70.63863007999993,-34.03178251999992],[-70.63868385499995,-34.02363308699995],[-70.64472685699991,-34.024061515999904],[-70.64441827599995,-34.021296787999916],[-70.64262852299993,-34.02001853799993],[-70.64334032399995,-34.019321566999906],[-70.64969051599991,-34.020400932999905],[-70.65697922699991,-34.01759449599996],[-70.65711890299991,-34.01912005199995],[-70.6683865249999,-34.01734406299994],[-70.66644616399992,-34.01158048699995],[-70.68152888599991,-34.00730751699996],[-70.6829763259999,-34.00955236899995],[-70.67952250699994,-34.01052888599992],[-70.68027941199995,-34.01200689099994],[-70.71831882099991,-34.02287749699991],[-70.7188254109999,-34.028076634999934],[-70.72677300299995,-34.049390804999916],[-70.68593009999995,-34.05268725299993],[-70.67948335799991,-34.05241327999994],[-70.67029357299992,-34.0493454999999],[-70.68235086899995,-34.08002404599995],[-70.68068127899994,-34.08045911699992],[-70.67622753199993,-34.087474706999956],[-70.67609647499995,-34.097990901999935],[-70.68128683599991,-34.10579083399995],[-70.68945167499993,-34.13813780699991],[-70.68458881899994,-34.14186884499992],[-70.68364102499993,-34.14499164599994],[-70.64345630399993,-34.147942762999946],[-70.64053657499994,-34.148663291999924],[-70.63830806399994,-34.151658175999955],[-70.63336708899993,-34.14973205299992],[-70.62469018599995,-34.15068134199993],[-70.61893381999994,-34.15468834699993],[-70.61215343999993,-34.14998914799992],[-70.6074269369999,-34.15078356899994],[-70.5990952599999,-34.14920900599992],[-70.58741528199994,-34.15116689599995],[-70.58234439299991,-34.14805915199992],[-70.57576923599993,-34.147329731999946],[-70.57246572999992,-34.14339505399994],[-70.5727173869999,-34.13707313899994],[-70.56799452799993,-34.13305323399993],[-70.56703478399993,-34.128258021999955],[-70.56089939199995,-34.12181228299994],[-70.56075214499992,-34.116575963999935],[-70.55334321999993,-34.11165076799995],[-70.54624347599992,-34.10394919299995],[-70.54322285799992,-34.0968901839999],[-70.53331431299995,-34.08971140999995],[-70.52844226499991,-34.07455498899992],[-70.51405886799995,-34.07302397399991],[-70.50916261299994,-34.069006019999904],[-70.49705196899993,-34.07021174199991],[-70.46771106299991,-34.06852830199995],[-70.45907398999992,-34.06180046499992],[-70.45442766199994,-34.060978433999935],[-70.45527545399995,-34.05299896999992],[-70.45309318199992,-34.04961875199996],[-70.43549019299991,-34.03608792199992],[-70.41872730999995,-34.04091687099992],[-70.4111679749999,-34.03835026799993],[-70.3994431829999,-34.04235254099996],[-70.38659719199995,-34.0404121169999],[-70.3805774949999,-34.03888375799994],[-70.37301746299994,-34.03494682899992],[-70.37166701399991,-34.03036335699994],[-70.36911561099993,-34.02823681099994],[-70.36860871099992,-34.024950187999934],[-70.3553115659999,-34.018674045999944],[-70.3534383409999,-34.015303945999904],[-70.34857147299994,-34.013703747999955],[-70.34272302199992,-34.009260679999954],[-70.33509641799992,-34.01076972799996],[-70.3276397539999,-34.01020273499995],[-70.32601453899991,-34.005507232999946],[-70.3210389589999,-33.999702792999926],[-70.32717964799991,-33.99191087899993],[-70.32937219999991,-33.981304818999945],[-70.34046152099995,-33.979552069999954],[-70.34558745699991,-33.97563834999994],[-70.35083719599993,-33.96804920599993],[-70.34641172199991,-33.96193354299993],[-70.34654303699995,-33.95673594699991],[-70.35028582099994,-33.95302332999995],[-70.35934933199991,-33.95085992799994],[-70.36576265899993,-33.944218065999905]]]}},{"type":"Feature","properties":{"cut":6105,"comuna":"DOÑIHUE"},"geometry":{"type":"Polygon","coordinates":[[[-70.90593327199991,-34.152444688999935],[-70.9118293809999,-34.14877323899992],[-70.91453052699995,-34.14453919999994],[-70.92619460499992,-34.1481594519999],[-70.93603838999991,-34.15292456599991],[-70.9411640269999,-34.15821625399991],[-70.9497930149999,-34.162738702999945],[-70.95802702099991,-34.16430861199996],[-70.96880331699992,-34.17199438199992],[-70.96634460999991,-34.17550614999993],[-70.9660286319999,-34.18019999099994],[-70.96430946299995,-34.18379029599993],[-70.96608812799991,-34.19590259799992],[-70.9679207069999,-34.19973699299993],[-70.9672076139999,-34.20442140299991],[-70.9640630419999,-34.209513098999935],[-70.96818415799993,-34.21285696599995],[-70.96627022399991,-34.21521524599996],[-70.97166141399993,-34.21821448199995],[-70.97759890799995,-34.21414371299994],[-70.97880527299992,-34.21773407899991],[-70.98282555999992,-34.221717859999956],[-70.98316103999991,-34.22556424499993],[-70.98561999999993,-34.22826999999995],[-70.9864306369999,-34.23219030999991],[-70.99192624499995,-34.23495953899993],[-70.99239028199992,-34.23783544899993],[-70.98981723399993,-34.24207803199994],[-70.9895373999999,-34.245067401999904],[-70.99142561199994,-34.253205460999936],[-70.99493484099992,-34.25564063399992],[-70.97389883099993,-34.25332646499993],[-70.96328150599993,-34.248487231999945],[-70.94406029699991,-34.23461730999992],[-70.93829841099995,-34.22904195499996],[-70.9180775719999,-34.21892511999994],[-70.90466096199992,-34.216310827999905],[-70.88550733699992,-34.217812764999906],[-70.87343989599992,-34.216044617999955],[-70.87173433099991,-34.214680449999946],[-70.86661338399995,-34.21410022099991],[-70.85125931599993,-34.2045198589999],[-70.84876872099994,-34.1983073799999],[-70.84265372899995,-34.1931277029999],[-70.84847753999992,-34.1916998449999],[-70.85883002999992,-34.1867023609999],[-70.85986190199992,-34.184738635999906],[-70.87014431099993,-34.17830640299991],[-70.88005440899991,-34.16421902999991],[-70.88790513599992,-34.157041859999936],[-70.89303471499994,-34.155809545999944],[-70.89423928899993,-34.153526349999936],[-70.90593327199991,-34.152444688999935]]]}},{"type":"Feature","properties":{"cut":6106,"comuna":"GRANEROS"},"geometry":{"type":"Polygon","coordinates":[[[-70.76355333299995,-34.00895049099995],[-70.7770591929999,-34.005595470999936],[-70.79064908899994,-33.999171529999956],[-70.80142178299991,-34.00390727799993],[-70.80664698699991,-34.00813568299992],[-70.8055799999999,-34.01564999999994],[-70.80849410999991,-34.021506109999905],[-70.80764016899991,-34.02533311199994],[-70.8125626769999,-34.026492180999924],[-70.81748849599995,-34.03699704299993],[-70.81542097899995,-34.039815103999956],[-70.80792511299995,-34.04160971199991],[-70.80388491499991,-34.04518250199993],[-70.80425239399995,-34.0542945869999],[-70.80218956699991,-34.05737369399992],[-70.80123618199991,-34.06342727099991],[-70.8036186089999,-34.07130476599991],[-70.80232867799992,-34.07794400999995],[-70.80427221499991,-34.08813629899993],[-70.79863217299993,-34.09176940499992],[-70.79653776299995,-34.09701866799992],[-70.78915999999992,-34.09946999999994],[-70.78576416899995,-34.10669974699994],[-70.78234259699991,-34.10806663499994],[-70.7841702419999,-34.11367192799992],[-70.78078086499994,-34.11239778099991],[-70.77665445299994,-34.112707868999905],[-70.7689938709999,-34.10963090999991],[-70.74842528499994,-34.11034930899996],[-70.73122123899992,-34.105475793999915],[-70.7156352639999,-34.105995391999954],[-70.71455855699992,-34.109154126999954],[-70.71114275799994,-34.11113213699991],[-70.71063950199994,-34.114176656999916],[-70.71225634599995,-34.11582562399991],[-70.70977932699992,-34.117481728999905],[-70.70920468699995,-34.12065830899991],[-70.70498233299992,-34.12213595399993],[-70.70444695499992,-34.124088301999905],[-70.7017383349999,-34.12584309399995],[-70.69918692199991,-34.12526976799995],[-70.69813176799994,-34.12670909399992],[-70.6963128459999,-34.12665759299995],[-70.68945167499993,-34.13813780699991],[-70.68128683599991,-34.10579083399995],[-70.67609647499995,-34.097990901999935],[-70.67622753199993,-34.087474706999956],[-70.68068127899994,-34.08045911699992],[-70.68235086899995,-34.08002404599995],[-70.67029357299992,-34.0493454999999],[-70.67948335799991,-34.05241327999994],[-70.68593009999995,-34.05268725299993],[-70.72677300299995,-34.049390804999916],[-70.7188254109999,-34.028076634999934],[-70.71834193599994,-34.023185619999936],[-70.72699452699993,-34.0294490789999],[-70.73398543299993,-34.02761340399991],[-70.74328512599993,-34.0221421249999],[-70.75372791899991,-34.00974818699996],[-70.76355333299995,-34.00895049099995]]]}},{"type":"Feature","properties":{"cut":6108,"comuna":"MACHALÍ"},"geometry":{"type":"Polygon","coordinates":[[[-70.33624723999992,-34.01062312599993],[-70.3370664759999,-34.00957567799992],[-70.34242952499994,-34.009136705999936],[-70.34857147299994,-34.013703747999955],[-70.3534383409999,-34.015303945999904],[-70.3553115659999,-34.018674045999944],[-70.35884732199992,-34.01950571399993],[-70.36168615199995,-34.022175818999926],[-70.36589511099993,-34.02300780199994],[-70.36860871099992,-34.024950187999934],[-70.36911561099993,-34.02823681099994],[-70.37166701399991,-34.03036335699994],[-70.37301746299994,-34.03494682899992],[-70.3805774949999,-34.03888375799994],[-70.39821933199994,-34.04243354099992],[-70.4111679749999,-34.03835026799993],[-70.41713339299992,-34.040793900999915],[-70.4237157579999,-34.04027820099992],[-70.43549019299991,-34.03608792199992],[-70.45309318199992,-34.04961875199996],[-70.45527545399995,-34.05299896999992],[-70.45442766199994,-34.060978433999935],[-70.45907398999992,-34.06180046499992],[-70.46771106299991,-34.06852830199995],[-70.49705196899993,-34.07021174199991],[-70.50916261299994,-34.069006019999904],[-70.51405886799995,-34.07302397399991],[-70.52844226499991,-34.07455498899992],[-70.53331431299995,-34.08971140999995],[-70.54322285799992,-34.0968901839999],[-70.54624347599992,-34.10394919299995],[-70.55334321999993,-34.11165076799995],[-70.56075214499992,-34.116575963999935],[-70.56089939199995,-34.12181228299994],[-70.56703478399993,-34.128258021999955],[-70.56753734499995,-34.132461217999946],[-70.5729622209999,-34.13757508499992],[-70.57246572999992,-34.14339505399994],[-70.5745199989999,-34.14685999999995],[-70.58234439299991,-34.14805915199992],[-70.58741528199994,-34.15116689599995],[-70.5990952599999,-34.14920900599992],[-70.6074269369999,-34.15078356899994],[-70.61215343999993,-34.14998914799992],[-70.61893381999994,-34.15468834699993],[-70.62469018599995,-34.15068134199993],[-70.63336708899993,-34.14973205299992],[-70.63830806399994,-34.151658175999955],[-70.64053657499994,-34.148663291999924],[-70.64345630399993,-34.147942762999946],[-70.68364102499993,-34.14499164599994],[-70.68022044799994,-34.15142389499994],[-70.67844550199993,-34.15983873399995],[-70.67680431499991,-34.161467641999934],[-70.69595210799991,-34.16953048699992],[-70.70778578799991,-34.18640491799994],[-70.7099787059999,-34.191149580999934],[-70.70967533999993,-34.193851612999936],[-70.72431598399993,-34.206826829999954],[-70.71478219999995,-34.212971453999955],[-70.71485491199991,-34.21701446299994],[-70.71138857799991,-34.217432870999914],[-70.70327479899993,-34.21424849299996],[-70.69941251799992,-34.21415325899994],[-70.6898820369999,-34.21690875899992],[-70.68604203299992,-34.219952737999904],[-70.6748858759999,-34.22321483299993],[-70.65988465099991,-34.23823016499995],[-70.64162440399991,-34.24639267999993],[-70.63593713699993,-34.25274745199994],[-70.62154243599991,-34.258660756999916],[-70.61092078699994,-34.265366971999924],[-70.59759298199992,-34.269375115999935],[-70.58875273599995,-34.270395306999944],[-70.58430991499995,-34.26944615699995],[-70.58072028799995,-34.27473997299995],[-70.57304730699991,-34.27622727799991],[-70.5676870229999,-34.275868645999935],[-70.55670022299995,-34.27832553099995],[-70.55639558999991,-34.281687002999945],[-70.55321521099995,-34.28459131199992],[-70.54788654999993,-34.28304619699992],[-70.54210796899991,-34.28336450099994],[-70.53816853399991,-34.2882502299999],[-70.53438628099991,-34.290043003999926],[-70.5254326669999,-34.28840769999994],[-70.52026537699993,-34.29425000599991],[-70.51732926799991,-34.29436234599996],[-70.51268477699995,-34.291370033999954],[-70.50326438499991,-34.293128518999936],[-70.49959068299995,-34.31049072199994],[-70.4937941739999,-34.31168078499991],[-70.48973169699991,-34.31857872899991],[-70.48465341999992,-34.32231091299991],[-70.48409206499991,-34.32718191799995],[-70.4794013579999,-34.32984118199994],[-70.4765856329999,-34.33383539399995],[-70.47017406299994,-34.33571732599995],[-70.46424568099991,-34.342047160999925],[-70.46061492599995,-34.34399195099991],[-70.46066940199995,-34.34642127699993],[-70.45621492099991,-34.351656335999905],[-70.45394150099992,-34.35900256299993],[-70.4568722059999,-34.362277743999925],[-70.45833916299995,-34.36646893699992],[-70.4611793869999,-34.36745408399992],[-70.45949323499991,-34.373316881999926],[-70.46302760599991,-34.377825953999945],[-70.46145641699991,-34.384855004999906],[-70.46183428499995,-34.39495531999995],[-70.46619865999992,-34.39998184299992],[-70.4749821229999,-34.40305268199995],[-70.4870244999999,-34.41685326999993],[-70.48771523099992,-34.421194243999935],[-70.49397229699991,-34.42683812599995],[-70.49903760399991,-34.439014537999924],[-70.49828708399991,-34.44237027799994],[-70.5000251269999,-34.446162526999956],[-70.50018774799992,-34.45034585399992],[-70.50884802999991,-34.45636974699994],[-70.51501260599991,-34.46472953299991],[-70.52366571199991,-34.47146860399994],[-70.53136860399991,-34.486371048999956],[-70.52980999899995,-34.49126999999993],[-70.52232747199992,-34.49766505699995],[-70.51640459099991,-34.496130656999924],[-70.5113581999999,-34.49271575299991],[-70.50505788699991,-34.49174730599992],[-70.4924180779999,-34.49223951999994],[-70.4865070749999,-34.49659158599991],[-70.48326019799993,-34.50203637599992],[-70.48399438299992,-34.504839096999945],[-70.48078217299991,-34.50631659299995],[-70.48056982699995,-34.51576644599993],[-70.48380765999991,-34.51961252399991],[-70.4846259599999,-34.52312265599994],[-70.48506408499992,-34.52980057299993],[-70.48313146599992,-34.53276942699995],[-70.48387438999993,-34.53866996799991],[-70.48628366999992,-34.54512962799993],[-70.48991934199995,-34.54919034899996],[-70.48786253199995,-34.565341926999906],[-70.4744894239999,-34.56748764899993],[-70.4691108259999,-34.57023678599995],[-70.46777548299991,-34.57724352999992],[-70.46906325799995,-34.58683576899995],[-70.46712134299992,-34.59040653399995],[-70.4522741049999,-34.590442657999915],[-70.4431689239999,-34.58646517799991],[-70.43606999999992,-34.58641999999992],[-70.43000649699991,-34.59048119399995],[-70.42001753199992,-34.58945825399991],[-70.40947588499995,-34.595889804999956],[-70.4033264329999,-34.603235928999936],[-70.39780626699991,-34.599876672999926],[-70.38762562399995,-34.603994351999916],[-70.3845565819999,-34.607210309999914],[-70.38282858899993,-34.611593769999956],[-70.37806058599995,-34.61204119899992],[-70.3765314929999,-34.61345318799994],[-70.37487407799995,-34.61838336299991],[-70.37615999999991,-34.62044999999995],[-70.36859482799991,-34.62427495599991],[-70.35822113499995,-34.62373691599993],[-70.3451942929999,-34.619800934999944],[-70.3346823519999,-34.622506295999926],[-70.33570578599995,-34.62694454399991],[-70.33022963399992,-34.6288697409999],[-70.3217688659999,-34.63476008999993],[-70.3198119139999,-34.63854473199996],[-70.31346252799995,-34.642284084999915],[-70.30828899799991,-34.6427875679999],[-70.30253981299995,-34.64523645199995],[-70.30479999899995,-34.655409999999904],[-70.29670532199992,-34.661342334999915],[-70.29491076699992,-34.665263661999916],[-70.28855235999993,-34.665674226999954],[-70.28512004999993,-34.68460137699992],[-70.27113376299991,-34.68956308899993],[-70.26728303899995,-34.69383016499995],[-70.25837946799993,-34.696125699999925],[-70.25571249799992,-34.70164904199993],[-70.2532907659999,-34.703452443999936],[-70.25035414799993,-34.70215609299993],[-70.2476644059999,-34.69497773499995],[-70.24216785099992,-34.69159414099994],[-70.24253904699992,-34.69008080399993],[-70.2351636699999,-34.689292725999906],[-70.23005258699993,-34.684909758999936],[-70.22726147999992,-34.68482124299993],[-70.22290706599995,-34.681566140999905],[-70.21544031699995,-34.684078851999914],[-70.21375565799991,-34.679417487999956],[-70.21555540199995,-34.671098995999955],[-70.21242220899995,-34.669744978999915],[-70.21523985599993,-34.66706702599993],[-70.21512129899992,-34.66218824899994],[-70.21394108599992,-34.66074153699992],[-70.22022286299995,-34.65940903799992],[-70.21909975699992,-34.64990642299995],[-70.22406807199991,-34.641292774999954],[-70.21900457899994,-34.63351098499993],[-70.21948047099994,-34.63096971999994],[-70.21781021099991,-34.629009269999926],[-70.21586368999994,-34.62033448199992],[-70.21681547499992,-34.61146385099994],[-70.21342712299992,-34.60742828499991],[-70.20488009799993,-34.602697916999944],[-70.1990405439999,-34.60206692599991],[-70.20447654199995,-34.59776957699995],[-70.20476207699994,-34.59590407999991],[-70.20335343599993,-34.59422893899995],[-70.19973284799994,-34.592827911999905],[-70.19805770799991,-34.593798732999915],[-70.19009317599995,-34.58947953499995],[-70.19443331199994,-34.58133606699994],[-70.19135428999994,-34.57547402699993],[-70.18529380299992,-34.57279570599991],[-70.17820116599995,-34.574101484999915],[-70.17657069899991,-34.57147938799994],[-70.1739294969999,-34.571065361999956],[-70.1731585519999,-34.566331186999946],[-70.16803140799993,-34.563234122999916],[-70.16781332999994,-34.56207813799995],[-70.16975497099992,-34.56057907799993],[-70.16742785799994,-34.555546517999915],[-70.16375872899994,-34.55181314299995],[-70.16171715199994,-34.55168465199995],[-70.15691397199993,-34.54806929999995],[-70.1568949359999,-34.54632991299991],[-70.1533685739999,-34.541361597999924],[-70.15163680299992,-34.54081622599995],[-70.14728238899994,-34.533075363999956],[-70.14364669199995,-34.53245341499991],[-70.1455691779999,-34.528314061999936],[-70.14492386799992,-34.52484195199992],[-70.13975425099994,-34.51592611199993],[-70.13418202899993,-34.510889268999904],[-70.13405353799993,-34.5075584999999],[-70.13017977599992,-34.50109968999993],[-70.12888921599995,-34.49374708699992],[-70.13193974399991,-34.48813833299994],[-70.11695235199994,-34.475806019999936],[-70.10270175999995,-34.48289681399996],[-70.09975122799995,-34.48223056499995],[-70.09544440299993,-34.47856619499993],[-70.0877325699999,-34.47569656499991],[-70.0849723959999,-34.473388487999955],[-70.08223601499992,-34.47300777399994],[-70.08038003599995,-34.471461123999916],[-70.07951629199994,-34.46670458199992],[-70.07446469599995,-34.46446312899991],[-70.06482787899995,-34.45151410199992],[-70.05459143799993,-34.449279788999945],[-70.05249751199995,-34.44230796799991],[-70.04837037399994,-34.438564346999954],[-70.0478781459999,-34.43154523299995],[-70.04522948499994,-34.42808234599994],[-70.03648782099992,-34.423096898999916],[-70.03017320799995,-34.424520291999954],[-70.02807452299993,-34.42143651099991],[-70.02315617799991,-34.418221382999945],[-70.02308860099993,-34.416118414999914],[-70.01269511499993,-34.412806205999914],[-70.01369924799991,-34.40690228699992],[-70.01217163399991,-34.40484643299993],[-70.00930200399995,-34.39352924099995],[-70.01301396299993,-34.38901207199996],[-70.01616912799994,-34.381374001999916],[-70.02453816899992,-34.37452115499991],[-70.02410986599995,-34.37108045399992],[-70.02579452399993,-34.36656185699991],[-70.02427166899992,-34.36591559599992],[-70.02307717999992,-34.36071790099993],[-70.02000291599995,-34.358550211999955],[-70.01661932199994,-34.35351765199994],[-70.01897974799994,-34.34664814799993],[-70.01468719999991,-34.3387645169999],[-70.01505839599992,-34.33438297799995],[-70.0182299999999,-34.32740999999993],[-70.01782999999995,-34.32350999999994],[-70.0217226339999,-34.314692952999906],[-70.02195153799994,-34.30785133199993],[-70.03089105399994,-34.29522731199995],[-70.03119524099992,-34.288302426999905],[-70.04547117899995,-34.28107607299995],[-70.05153425399993,-34.28077506199992],[-70.05327836299995,-34.27936075899993],[-70.05252701899991,-34.267133034999915],[-70.05419526999992,-34.25852879999991],[-70.05199326999991,-34.255550495999955],[-70.05201580799991,-34.251990485999954],[-70.0492920069999,-34.24350464399993],[-70.05127596799991,-34.23833137399993],[-70.0500821409999,-34.22914033799992],[-70.05100602199991,-34.22542783299991],[-70.05573820399991,-34.22170161199995],[-70.0567989779999,-34.21898799299993],[-70.0666287709999,-34.20919456899992],[-70.0673301409999,-34.206856510999955],[-70.07773139999995,-34.198170441999935],[-70.08212209899995,-34.199257952999915],[-70.08795077299993,-34.202779681999914],[-70.09387701599991,-34.20397674499992],[-70.11047496799995,-34.20258121199993],[-70.1149467589999,-34.20095694299994],[-70.11754526699991,-34.19013931999996],[-70.12545875599994,-34.18850029799995],[-70.13171084699991,-34.189546795999945],[-70.13585995999995,-34.187971353999956],[-70.14276216999991,-34.18099863899994],[-70.14746392899991,-34.17993595999991],[-70.14562317899993,-34.17685101399991],[-70.1458188169999,-34.173532087999945],[-70.15013465099992,-34.16971370099992],[-70.1496611259999,-34.16723621999995],[-70.15283932199992,-34.1641254349999],[-70.1539802069999,-34.16100928399993],[-70.15791951299991,-34.159445010999946],[-70.16422261699995,-34.159413328999904],[-70.16277794599995,-34.15318361499993],[-70.16026924399995,-34.149614509999935],[-70.16463024199993,-34.14043754699992],[-70.16171481099991,-34.13423428199991],[-70.15797896499993,-34.13275146299992],[-70.1501122379999,-34.12464793599992],[-70.14166139899993,-34.12049699399995],[-70.14454987899995,-34.1166711969999],[-70.15808345799991,-34.111201216999916],[-70.16438197999992,-34.10029720499995],[-70.16463644099991,-34.095702150999955],[-70.15865197699992,-34.093217144999926],[-70.16094524899995,-34.087375520999956],[-70.1642023039999,-34.083800477999944],[-70.16486439699992,-34.079886366999915],[-70.1721413699999,-34.071526149999954],[-70.17106577899995,-34.06808328699992],[-70.17490540499995,-34.058704124999906],[-70.1745335889999,-34.053398071999936],[-70.17019693599991,-34.048257959999944],[-70.1696244179999,-34.04480749599992],[-70.17472284399992,-34.04206908899994],[-70.17970665899992,-34.036008985999956],[-70.18533604299995,-34.032536862999905],[-70.20398941999991,-34.034581131999914],[-70.21013481699993,-34.03123854899991],[-70.21480704899994,-34.030220293999946],[-70.24025745199992,-34.03272301299995],[-70.2442430829999,-34.034386007999956],[-70.24573146199992,-34.03731827599995],[-70.24516069599991,-34.042472827999916],[-70.24809477399992,-34.047509274999925],[-70.24805502699991,-34.05734841099991],[-70.25279038699995,-34.059787316999916],[-70.25606223299991,-34.0657227449999],[-70.25926478199995,-34.06739286299995],[-70.2616839829999,-34.071224987999926],[-70.26641877399993,-34.070959141999936],[-70.27066572399991,-34.06547937699992],[-70.27755498899995,-34.063740939999946],[-70.2884841899999,-34.05829975799992],[-70.3020838189999,-34.06068568399991],[-70.30399393599993,-34.06254205399995],[-70.3039120489999,-34.06570300799996],[-70.3086917569999,-34.06682866199992],[-70.31065520499993,-34.06360748399993],[-70.31353053299995,-34.0620962669999],[-70.31489756499991,-34.05724033999991],[-70.32299803299992,-34.057281134999926],[-70.32598240099992,-34.05917731899996],[-70.32926707999991,-34.058792498999935],[-70.3370567419999,-34.055778877999956],[-70.34053112999993,-34.05274242999991],[-70.34161176099991,-34.04236285399992],[-70.34446571299992,-34.03903230299994],[-70.33960278299992,-34.03321865499993],[-70.33903329999993,-34.029588720999925],[-70.33094049699992,-34.02086686999991],[-70.3257260229999,-34.019790806999936],[-70.3211331999999,-34.0158348299999],[-70.32703678799993,-34.01032486799994],[-70.33624723999992,-34.01062312599993]]]}},{"type":"Feature","properties":{"cut":6111,"comuna":"OLIVAR"},"geometry":{"type":"Polygon","coordinates":[[[-70.8247308629999,-34.18859202099992],[-70.83345201199995,-34.18927192499996],[-70.84018336999992,-34.19152496299995],[-70.84705290499994,-34.19625061699992],[-70.85146383499995,-34.204748837999944],[-70.86661338399995,-34.21410022099991],[-70.88550733699992,-34.217812764999906],[-70.89886074599991,-34.21667264999991],[-70.8994190379999,-34.233196913999905],[-70.90143102499991,-34.23785393999992],[-70.89731139899993,-34.23863530099993],[-70.89237974499991,-34.24195023699991],[-70.88216587799991,-34.24326376099992],[-70.87727463399995,-34.24242033999991],[-70.87308332099991,-34.23822379099994],[-70.8698252659999,-34.238234855999906],[-70.86750384699991,-34.23602843799995],[-70.86241134199992,-34.234959501999924],[-70.8613824489999,-34.23227908699994],[-70.8468621479999,-34.23303522999993],[-70.84488599699995,-34.23141941299991],[-70.8367297179999,-34.230171327999926],[-70.82841234599994,-34.231111692999946],[-70.82219480299995,-34.22970746699991],[-70.81592381299993,-34.230392182999935],[-70.80215912699992,-34.22572510999993],[-70.78987967099994,-34.22408427799991],[-70.77786201499993,-34.21529410599993],[-70.77234505599995,-34.21625197499992],[-70.76299589999991,-34.213926761999915],[-70.75348283499994,-34.21348098799996],[-70.74379865899994,-34.20895683099991],[-70.74015843199993,-34.20855906299994],[-70.73276840799991,-34.21014956899995],[-70.72939548799991,-34.21254247899992],[-70.73435408699993,-34.20716251399995],[-70.7355370169999,-34.2036979959999],[-70.75730520399992,-34.1924255749999],[-70.7640605759999,-34.19243147099991],[-70.76952982899991,-34.190037196999924],[-70.7740034759999,-34.19117669499991],[-70.79052902899991,-34.18988491999994],[-70.79671676099991,-34.19185160099994],[-70.80358513699991,-34.18901852099992],[-70.81401575199993,-34.18985928899991],[-70.8247308629999,-34.18859202099992]]]}},{"type":"Feature","properties":{"cut":6115,"comuna":"RENGO"},"geometry":{"type":"Polygon","coordinates":[[[-70.92394000999991,-34.28476000999996],[-70.9432951739999,-34.292779552999946],[-70.9443264599999,-34.29433300699992],[-70.9420398609999,-34.300979971999936],[-70.94142940299992,-34.30936028499991],[-70.95045119499991,-34.31399035299995],[-70.94731735099992,-34.321046904999946],[-70.94740961999992,-34.32883121099991],[-70.94251480199995,-34.33317830699991],[-70.9443838119999,-34.339620355999955],[-70.92845772499993,-34.34845369299995],[-70.93404753099992,-34.36037548799993],[-70.92963092999992,-34.36587315599991],[-70.93143557499991,-34.373792729999934],[-70.93471948799993,-34.37653595499995],[-70.93796350299993,-34.37684526999993],[-70.94035211999994,-34.37999473199994],[-70.95891536799991,-34.38845384399991],[-70.95839851699992,-34.39469068699992],[-70.95952447899992,-34.39528333699991],[-70.95732911999994,-34.39993803999994],[-70.95410297399991,-34.39835125399992],[-70.95056788999995,-34.40031591799993],[-70.94225685099991,-34.40059342599994],[-70.93960693899993,-34.39949450799992],[-70.93649100399995,-34.40214629199994],[-70.93342647799994,-34.402535100999955],[-70.91784217899993,-34.39870882799994],[-70.91385680799993,-34.398808249999945],[-70.91044604799993,-34.394901604999916],[-70.90658829299991,-34.395650417999946],[-70.90759582699991,-34.403867722999905],[-70.89909118799994,-34.403941205999956],[-70.90270642099995,-34.40787578299995],[-70.90907537299995,-34.41049381699992],[-70.90475355899991,-34.41293638999991],[-70.90293608899992,-34.416510901999914],[-70.90361234799991,-34.42358828899995],[-70.90610975699991,-34.42820158399991],[-70.89340897799991,-34.42805680299995],[-70.89064884899994,-34.42875680299994],[-70.88803427199991,-34.43133639599995],[-70.8869864369999,-34.42726290699994],[-70.88529283199995,-34.431195001999924],[-70.8808397549999,-34.43026726799991],[-70.88001186799994,-34.42884637499992],[-70.87551955999993,-34.42997481499992],[-70.8757492659999,-34.430773761999944],[-70.87274649099993,-34.42941321799992],[-70.86757704399992,-34.43117157799992],[-70.8665541389999,-34.43426143599993],[-70.86218352799995,-34.43530501999993],[-70.86267773599991,-34.43956982099991],[-70.8425736069999,-34.44674317699992],[-70.83934790899991,-34.449182916999916],[-70.83157157599993,-34.44923299199991],[-70.8227185909999,-34.457175675999906],[-70.81537694499991,-34.45636392699993],[-70.81207764099992,-34.46193046099995],[-70.80764010999991,-34.46401317899995],[-70.80253039399992,-34.472716283999944],[-70.79382751399993,-34.47901554099991],[-70.79363785999993,-34.48341821999992],[-70.7856574189999,-34.487274828999944],[-70.78236602299995,-34.49184591199992],[-70.7721914359999,-34.49663486199995],[-70.77101284899993,-34.49917610999995],[-70.76365271999993,-34.50190040499996],[-70.76175612399993,-34.508971706999944],[-70.74347087899991,-34.518022268999914],[-70.7340265979999,-34.51850619299995],[-70.7269812959999,-34.516748100999905],[-70.72059289999993,-34.52376973899993],[-70.71974867999995,-34.52866936399994],[-70.7215763989999,-34.53141369399992],[-70.7196740359999,-34.53461267999995],[-70.71273268099992,-34.53549939499993],[-70.70804910099992,-34.53767691899992],[-70.70915615899992,-34.542071714999906],[-70.70658593899992,-34.544733444999906],[-70.70911999599991,-34.54999000399994],[-70.7047342059999,-34.55389056799993],[-70.69564733199991,-34.550541205999934],[-70.68233999899991,-34.549729999999954],[-70.6738999989999,-34.54636999999991],[-70.65724304699995,-34.54949972599991],[-70.65528591099991,-34.55348914399991],[-70.64535604999992,-34.56112083499994],[-70.64489586999991,-34.568331422999904],[-70.64193423699993,-34.57743313499992],[-70.64236548699995,-34.58404561499992],[-70.64593000099995,-34.591910008999946],[-70.63614199699992,-34.59146434099995],[-70.6269999989999,-34.59574999999995],[-70.62777808099992,-34.588487983999926],[-70.62495474099995,-34.585311145999924],[-70.6166625219999,-34.58524547099995],[-70.60764519399993,-34.58329977099993],[-70.60137993399991,-34.58120910899993],[-70.59682960499993,-34.57803170699992],[-70.58038999999991,-34.576649999999916],[-70.5740892359999,-34.57770049499993],[-70.5712341549999,-34.58147026599994],[-70.5660550899999,-34.581419625999956],[-70.56104388799992,-34.58344049599992],[-70.5572102719999,-34.58708720899995],[-70.55313675399992,-34.58864494599993],[-70.54882720499995,-34.59605298199995],[-70.5438747739999,-34.59666127499992],[-70.53757907199991,-34.602245584999935],[-70.52301240199995,-34.60839075899992],[-70.52200999999991,-34.608589999999936],[-70.5207914149999,-34.605312942999944],[-70.5175599989999,-34.60280999999992],[-70.51348660499991,-34.596555132999924],[-70.4950608179999,-34.59709340799992],[-70.48634921599995,-34.605765953999935],[-70.48281165599991,-34.60746474299992],[-70.48107027999993,-34.60702431499993],[-70.47564502499995,-34.60014200199993],[-70.47269454699995,-34.599672547999944],[-70.47083774099991,-34.59410225699992],[-70.46744000199993,-34.58984999799992],[-70.46906325799995,-34.58683576899995],[-70.46777548299991,-34.57724352999992],[-70.46838764899991,-34.57264131499994],[-70.4691108259999,-34.57023678599995],[-70.4744894239999,-34.56748764899993],[-70.4880605159999,-34.564843236999934],[-70.48991934199995,-34.54919034899996],[-70.48628366999992,-34.54512962799993],[-70.48387438999993,-34.53866996799991],[-70.48313146599992,-34.53276942699995],[-70.48506408499992,-34.52980057299993],[-70.4846259599999,-34.52312265599994],[-70.48380765999991,-34.51961252399991],[-70.48056982699995,-34.51576644599993],[-70.48115788799993,-34.51179046599992],[-70.4800936819999,-34.50907118899994],[-70.48078217299991,-34.50631659299995],[-70.48399438299992,-34.504839096999945],[-70.48326019799993,-34.50203637599992],[-70.48558005399991,-34.49775803199992],[-70.4924180779999,-34.49223951999994],[-70.50505788699991,-34.49174730599992],[-70.5113581999999,-34.49271575299991],[-70.51640459099991,-34.496130656999924],[-70.52232747199992,-34.49766505699995],[-70.53126403899995,-34.48915248499992],[-70.53585964799993,-34.488100164999935],[-70.5431050869999,-34.490756835999946],[-70.5462005249999,-34.493306650999955],[-70.55989077099991,-34.49758164699995],[-70.56704796199995,-34.49355271399992],[-70.57436010399994,-34.48405754399994],[-70.57561747199992,-34.47608760199995],[-70.58185690099992,-34.469307870999955],[-70.58046065399992,-34.46195550199991],[-70.58118143299993,-34.454185253999924],[-70.58748070999991,-34.45181425499993],[-70.59854946699994,-34.45284458399993],[-70.61836246399992,-34.448669226999925],[-70.62419854599995,-34.452046354999936],[-70.62710625599993,-34.45238480699993],[-70.6303307949999,-34.45146843899994],[-70.63304681599993,-34.44779590599995],[-70.63494119099994,-34.447323154999935],[-70.6483757069999,-34.459230507999905],[-70.65638001899993,-34.462572491999936],[-70.66818773599994,-34.463244721999956],[-70.67566379699991,-34.452903411999955],[-70.67167876299993,-34.45058650599992],[-70.67403587599995,-34.44437955299992],[-70.66705386199993,-34.44040907899995],[-70.66447969599994,-34.43708073399995],[-70.66625379499993,-34.431858321999925],[-70.67192602499995,-34.422591250999915],[-70.66646776399995,-34.412668079999946],[-70.6680353719999,-34.409939968999936],[-70.66831348199992,-34.405254742999944],[-70.6703568879999,-34.40336925799994],[-70.68611986199994,-34.400410000999955],[-70.69216443699992,-34.404289123999945],[-70.70072742299993,-34.40509371199994],[-70.70257603099992,-34.39815003099994],[-70.70644320799994,-34.39677394499995],[-70.71014629199993,-34.3912508919999],[-70.7143627289999,-34.392079089999925],[-70.72091580499995,-34.38466831899996],[-70.7262452409999,-34.38523408599991],[-70.73460477799995,-34.389475457999936],[-70.73923152799995,-34.38414266299992],[-70.74853249699993,-34.381412592999936],[-70.75340658599993,-34.37899838199991],[-70.75709100499995,-34.375121289999925],[-70.76355935599992,-34.37339926399994],[-70.76823001299994,-34.363179981999906],[-70.77381481099991,-34.35812680099991],[-70.7742299169999,-34.35245004399991],[-70.77788874499993,-34.352177293999944],[-70.78023207899992,-34.349978853999914],[-70.78741739399993,-34.34805996299991],[-70.79474833499995,-34.34330537899996],[-70.79879466099993,-34.34336572899991],[-70.80310999999995,-34.34590999999995],[-70.81107161499995,-34.345156525999926],[-70.81217831999993,-34.343108396999924],[-70.80905416099995,-34.34014010499993],[-70.83472718899992,-34.334897791999936],[-70.82690758799993,-34.311426113999914],[-70.90325009599991,-34.290669590999926],[-70.91933580599994,-34.28852099899996],[-70.9203044759999,-34.28665743599993],[-70.92394000999991,-34.28476000999996]]]}},{"type":"Feature","properties":{"cut":6116,"comuna":"REQUÍNOA"},"geometry":{"type":"Polygon","coordinates":[[[-70.7386779979999,-34.20884164699993],[-70.74342371499995,-34.20882187899991],[-70.75348283499994,-34.21348098799996],[-70.76299589999991,-34.213926761999915],[-70.77234505599995,-34.21625197499992],[-70.77842286799995,-34.215412977999904],[-70.78937693799992,-34.223940238999944],[-70.80215912699992,-34.22572510999993],[-70.81592381299993,-34.230392182999935],[-70.82219480299995,-34.22970746699991],[-70.82841234599994,-34.231111692999946],[-70.8367297179999,-34.230171327999926],[-70.84488599699995,-34.23141941299991],[-70.8468621479999,-34.23303522999993],[-70.8613824489999,-34.23227908699994],[-70.8623110179999,-34.234902416999944],[-70.86750384699991,-34.23602843799995],[-70.8698252659999,-34.238234855999906],[-70.87308332099991,-34.23822379099994],[-70.87841116699991,-34.24260645699991],[-70.8775714059999,-34.245864454999946],[-70.88222126699992,-34.25205547399992],[-70.88240084499995,-34.2548033729999],[-70.87614773399991,-34.26387067499991],[-70.87179931499992,-34.26739526999995],[-70.87800832799991,-34.26861027499996],[-70.88183999899991,-34.27298000099995],[-70.88974999899995,-34.26154999999994],[-70.9060251009999,-34.258384478999915],[-70.90817501999993,-34.260505733999935],[-70.90733545899991,-34.26469895199995],[-70.9110899989999,-34.26681000099995],[-70.9119001279999,-34.26915270199993],[-70.91219754499991,-34.281139012999915],[-70.92244999999991,-34.28180999999995],[-70.92394000999991,-34.28476000999996],[-70.9203044759999,-34.28665743599993],[-70.91933580599994,-34.28852099899996],[-70.90325009599991,-34.290669590999926],[-70.82690758799993,-34.311426113999914],[-70.83472718899992,-34.334897791999936],[-70.80905416099995,-34.34014010499993],[-70.81217831999993,-34.343108396999924],[-70.81107161499995,-34.345156525999926],[-70.80310999999995,-34.34590999999995],[-70.79879466099993,-34.34336572899991],[-70.79474833499995,-34.34330537899996],[-70.78741739399993,-34.34805996299991],[-70.78023207899992,-34.349978853999914],[-70.77788874499993,-34.352177293999944],[-70.7742299169999,-34.35245004399991],[-70.77381481099991,-34.35812680099991],[-70.76823001299994,-34.363179981999906],[-70.76355935599992,-34.37339926399994],[-70.75709100499995,-34.375121289999925],[-70.75340658599993,-34.37899838199991],[-70.74853249699993,-34.381412592999936],[-70.73923152799995,-34.38414266299992],[-70.73460477799995,-34.389475457999936],[-70.7262452409999,-34.38523408599991],[-70.72091580499995,-34.38466831899996],[-70.7143627289999,-34.392079089999925],[-70.71014629199993,-34.3912508919999],[-70.70644320799994,-34.39677394499995],[-70.70257603099992,-34.39815003099994],[-70.70072742299993,-34.40509371199994],[-70.69216443699992,-34.404289123999945],[-70.68611986199994,-34.400410000999955],[-70.6703568879999,-34.40336925799994],[-70.66831348199992,-34.405254742999944],[-70.6680353719999,-34.409939968999936],[-70.66646776399995,-34.412668079999946],[-70.67192602499995,-34.422591250999915],[-70.66625379499993,-34.431858321999925],[-70.66447969599994,-34.43708073399995],[-70.66705386199993,-34.44040907899995],[-70.67403587599995,-34.44437955299992],[-70.67167876299993,-34.45058650599992],[-70.67566379699991,-34.452903411999955],[-70.66818773599994,-34.463244721999956],[-70.65638001899993,-34.462572491999936],[-70.6483757069999,-34.459230507999905],[-70.63494119099994,-34.447323154999935],[-70.63304681599993,-34.44779590599995],[-70.6303307949999,-34.45146843899994],[-70.62727500099993,-34.452368331999935],[-70.62419854599995,-34.452046354999936],[-70.61836246399992,-34.448669226999925],[-70.59854946699994,-34.45284458399993],[-70.59046246799994,-34.45162025099995],[-70.58476058999992,-34.45229240899994],[-70.58180776099994,-34.453496264999956],[-70.58062131499992,-34.45563511699993],[-70.58174336099995,-34.46966860099991],[-70.57561747199992,-34.47608760199995],[-70.57436010399994,-34.48405754399994],[-70.5668416769999,-34.493698357999904],[-70.55913536899993,-34.49768794399995],[-70.5462005249999,-34.493306650999955],[-70.5431050869999,-34.490756835999946],[-70.53639348099995,-34.48820077699992],[-70.53126403899995,-34.48915248499992],[-70.5310915949999,-34.484918139999934],[-70.52366571199991,-34.47146860399994],[-70.51501260599991,-34.46472953299991],[-70.50884802999991,-34.45636974699994],[-70.50018774799992,-34.45034585399992],[-70.5000251269999,-34.446162526999956],[-70.49828708399991,-34.44237027799994],[-70.49903760399991,-34.439014537999924],[-70.49397229699991,-34.42683812599995],[-70.48771523099992,-34.421194243999935],[-70.4870244999999,-34.41685326999993],[-70.4749821229999,-34.40305268199995],[-70.46619865999992,-34.39998184299992],[-70.46183428499995,-34.39495531999995],[-70.46145641699991,-34.384855004999906],[-70.46302760599991,-34.377825953999945],[-70.45949323499991,-34.373316881999926],[-70.4611793869999,-34.36745408399992],[-70.45833916299995,-34.36646893699992],[-70.4568722059999,-34.362277743999925],[-70.45394031799992,-34.35924565199991],[-70.4553516869999,-34.35338613499994],[-70.46066940199995,-34.34642127699993],[-70.46061492599995,-34.34399195099991],[-70.46424568099991,-34.342047160999925],[-70.47017406299994,-34.33571732599995],[-70.4765856329999,-34.33383539399995],[-70.4794013579999,-34.32984118199994],[-70.48409206499991,-34.32718191799995],[-70.48465341999992,-34.32231091299991],[-70.48973169699991,-34.31857872899991],[-70.4937941739999,-34.31168078499991],[-70.49959068299995,-34.31049072199994],[-70.50178540099995,-34.29644719399994],[-70.5035631529999,-34.29285836099996],[-70.51268477699995,-34.291370033999954],[-70.51732926799991,-34.29436234599996],[-70.52026537699993,-34.29425000599991],[-70.5254326669999,-34.28840769999994],[-70.53438628099991,-34.290043003999926],[-70.53816853399991,-34.2882502299999],[-70.54210796899991,-34.28336450099994],[-70.54788654999993,-34.28304619699992],[-70.55321521099995,-34.28459131199992],[-70.55639558999991,-34.281687002999945],[-70.55670022299995,-34.27832553099995],[-70.5676870229999,-34.275868645999935],[-70.57304730699991,-34.27622727799991],[-70.58072028799995,-34.27473997299995],[-70.58430991499995,-34.26944615699995],[-70.58875273599995,-34.270395306999944],[-70.59759298199992,-34.269375115999935],[-70.61092078699994,-34.265366971999924],[-70.62154243599991,-34.258660756999916],[-70.63593713699993,-34.25274745199994],[-70.64162440399991,-34.24639267999993],[-70.65988465099991,-34.23823016499995],[-70.66880960399993,-34.229830930999924],[-70.67160788199993,-34.225568504999956],[-70.67773477799994,-34.221929581999916],[-70.68604203299992,-34.219952737999904],[-70.6898820369999,-34.21690875899992],[-70.69941251799992,-34.21415325899994],[-70.7140839779999,-34.217250135999905],[-70.7386779979999,-34.20884164699993]]]}},{"type":"Feature","properties":{"cut":6301,"comuna":"SAN FERNANDO"},"geometry":{"type":"Polygon","coordinates":[[[-70.90504999899991,-34.47723999999994],[-70.90575053599991,-34.48034291999994],[-70.91052073399993,-34.48117636299992],[-70.9144560439999,-34.484839664999924],[-70.92108826299994,-34.48471226999993],[-70.92465871899992,-34.492486190999955],[-70.9436435739999,-34.49845946799991],[-70.94470999999993,-34.50112999999993],[-70.95023208299995,-34.504825369999935],[-70.95284146799992,-34.51364441699991],[-70.95590993099995,-34.51677769499992],[-70.96862576899991,-34.51512109799995],[-70.97933720099991,-34.517114430999925],[-70.98507082099991,-34.516174089999936],[-70.99245550699993,-34.52011669399991],[-70.99528559499993,-34.52028229599995],[-71.00258867499991,-34.516850425999905],[-71.00445778399995,-34.512120154999934],[-71.01285694299992,-34.5195356989999],[-71.01342655299993,-34.52366047399994],[-71.01637785399993,-34.529070401999945],[-71.03042553799992,-34.54471645199993],[-71.03276722599992,-34.55282163699991],[-71.03557308699993,-34.55685388099994],[-71.03454438699993,-34.56276993699993],[-71.03984381999993,-34.56515028899992],[-71.04276260199993,-34.56968395399991],[-71.04343714399994,-34.57319385499994],[-71.04249764299993,-34.57525976799991],[-71.04720670899991,-34.583347707999906],[-71.04659303299991,-34.5925996709999],[-71.04150916999993,-34.59336500399991],[-71.02522570799994,-34.599963843999944],[-70.99463952399992,-34.61463059199991],[-70.98266058799993,-34.61668969599992],[-70.96890366499991,-34.62324337699994],[-70.95721311199992,-34.63191073199994],[-70.95103732299992,-34.63340285699991],[-70.9438410699999,-34.63767815299991],[-70.93401824299991,-34.64593879899991],[-70.90292007799991,-34.65361851999995],[-70.89164445299991,-34.65850641499992],[-70.88837593799991,-34.663867069999924],[-70.88462560399995,-34.666949263999925],[-70.87779373299992,-34.678598173999944],[-70.87958016099992,-34.68722822099994],[-70.88462157299995,-34.68843132599994],[-70.88596999999993,-34.69160999999991],[-70.88969299399992,-34.692594011999915],[-70.89323647799995,-34.69741818999995],[-70.89176519699993,-34.70325628299992],[-70.89518657399992,-34.71018139699993],[-70.8944650439999,-34.71505514699993],[-70.8907343649999,-34.71801068099995],[-70.88785717299993,-34.72416345899995],[-70.89011096999991,-34.730119062999904],[-70.88673520599991,-34.73552170699992],[-70.87328134899991,-34.742838236999944],[-70.87297846999991,-34.74576541499994],[-70.8683760909999,-34.7502549589999],[-70.86703028099993,-34.75922098199993],[-70.86336882499995,-34.763132722999956],[-70.86286999999993,-34.76774999999992],[-70.8589211229999,-34.768493021999916],[-70.8449721259999,-34.777917928999955],[-70.83725999899991,-34.77908000299993],[-70.83736697199993,-34.78512190299995],[-70.83345503099991,-34.789821324999934],[-70.83439091399993,-34.795835576999934],[-70.82986124599995,-34.80687871899994],[-70.8315488689999,-34.81559330999994],[-70.82908164399993,-34.81878020599993],[-70.8287276659999,-34.82166478799991],[-70.82558917199992,-34.82495768799993],[-70.82308999999992,-34.836769999999945],[-70.81784256399993,-34.84416907699995],[-70.81505226799993,-34.846208118999925],[-70.8160099989999,-34.850619999999935],[-70.81162529399995,-34.85287587499994],[-70.8062515009999,-34.852306437999914],[-70.80410659899991,-34.85428661699996],[-70.79756772299993,-34.85293453799994],[-70.78952667599992,-34.85974073999995],[-70.77791436099994,-34.857496649999916],[-70.76911994799991,-34.859931736999954],[-70.76047120299995,-34.86695983799996],[-70.75858748399992,-34.8720148349999],[-70.75131537199991,-34.875278170999934],[-70.74910136299991,-34.884133558999906],[-70.74286364099993,-34.88557106499991],[-70.7393873709999,-34.89082811199995],[-70.7234037799999,-34.895486760999916],[-70.7147007499999,-34.90297602499993],[-70.7107908559999,-34.915585422999925],[-70.70220728699991,-34.91837537999993],[-70.6954095239999,-34.92564725199992],[-70.68537362899991,-34.92416916399992],[-70.68383439899992,-34.928733817999955],[-70.67511820699991,-34.93654108599992],[-70.67384507699995,-34.94046224899995],[-70.67124308899992,-34.94213853899993],[-70.67174610199993,-34.944145405999905],[-70.66915473299991,-34.94596767399992],[-70.66643595599993,-34.956202585999904],[-70.6664551739999,-34.96232425699992],[-70.66149027499995,-34.966093403999935],[-70.64887581599993,-34.97086357599994],[-70.64553658699992,-34.974246569999934],[-70.64014856299991,-34.975673384999936],[-70.63368486099995,-34.98078586899993],[-70.62617564699991,-34.98340007099995],[-70.6221494639999,-34.98769526199993],[-70.6185210559999,-34.98611241899994],[-70.61922206199995,-34.981076310999924],[-70.6182699709999,-34.977457897999955],[-70.61597673799992,-34.97608977199991],[-70.61764271899995,-34.97103779799994],[-70.61543952699992,-34.96723663699993],[-70.6160878629999,-34.96287791599991],[-70.6147595249999,-34.96063595599992],[-70.5980464399999,-34.956923838999955],[-70.5860459399999,-34.96187234699994],[-70.58329141399992,-34.957361815999946],[-70.57147225299991,-34.95511981899995],[-70.56831588299991,-34.95291720799992],[-70.57086850099995,-34.94477842799995],[-70.5679974809999,-34.93961026599993],[-70.5625790169999,-34.94037685099994],[-70.55434305799992,-34.9394499359999],[-70.55012225099995,-34.93752004899994],[-70.54872413299995,-34.93550931099992],[-70.5410797959999,-34.933552713999916],[-70.54104386999995,-34.937464133999924],[-70.53881175099991,-34.93965358199995],[-70.5407718429999,-34.94359501099996],[-70.53866324299992,-34.94567241499993],[-70.5396912349999,-34.9484099899999],[-70.53869296099992,-34.95005581099991],[-70.52994126699991,-34.95180014099992],[-70.52258422299991,-34.95116753399992],[-70.52430001199991,-34.96105963499991],[-70.5264767459999,-34.96503747199995],[-70.51440089899995,-34.968580869999926],[-70.51111487599991,-34.97189651899993],[-70.49952421199993,-34.971107444999916],[-70.48974079099992,-34.97499874099992],[-70.48682961799994,-34.9825061759999],[-70.48046082699994,-34.98675904999993],[-70.4780265949999,-34.99410730199992],[-70.47032063899991,-34.99375882999993],[-70.46548975299993,-34.990624572999934],[-70.42603036499992,-34.988485125999944],[-70.4151371019999,-34.98461804899995],[-70.41058852299994,-34.98465203699993],[-70.40103700399993,-34.98865172199993],[-70.3994870869999,-34.99073878099995],[-70.39401635999991,-34.99237098099991],[-70.39099858999992,-34.997378349999906],[-70.38835458799991,-34.998986558999945],[-70.38032987899993,-35.00008561899995],[-70.37701598899991,-34.998144106999916],[-70.36919035799991,-35.00392098499992],[-70.36394884799995,-35.00518877999991],[-70.3611791539999,-35.00253472899993],[-70.35741008899993,-35.00166527399995],[-70.35680189899995,-34.99839303899995],[-70.35466038399994,-34.99618014099991],[-70.34479513799994,-34.99319629599995],[-70.34286206399992,-34.99492378499991],[-70.33819070599992,-34.9914602419999],[-70.33359358699994,-34.99084634099995],[-70.3340701379999,-34.98739006699992],[-70.33179471499994,-34.98571812699993],[-70.33237435099994,-34.98317971699993],[-70.33048981799993,-34.98200902199994],[-70.33064686299991,-34.978716799999916],[-70.32704911799993,-34.97718918699991],[-70.33061991999995,-34.97299432799991],[-70.33073889299993,-34.96485657099993],[-70.32897648199992,-34.95905912099994],[-70.33107516599995,-34.954597631999945],[-70.32996157799994,-34.95133967299995],[-70.33198414299994,-34.94544552199994],[-70.33034705099993,-34.942884971999945],[-70.33227441399993,-34.939441416999955],[-70.33123221099993,-34.93663603199991],[-70.32678904699992,-34.93300236299996],[-70.31968516199993,-34.93236442399996],[-70.31611596999994,-34.92257770099991],[-70.31368892099994,-34.92084735599991],[-70.31236118099991,-34.91603608699995],[-70.30941714999994,-34.9133123979999],[-70.30688669999995,-34.906786301999944],[-70.30219070699991,-34.90454638399996],[-70.30156252899991,-34.89963660299992],[-70.28932305799992,-34.89196855299991],[-70.29185004499993,-34.88913889799994],[-70.29110765299993,-34.88369944899995],[-70.28320260799995,-34.877696069999956],[-70.2769012089999,-34.876254960999916],[-70.2759387609999,-34.872751766999954],[-70.28095830099994,-34.86877737299994],[-70.27657533299993,-34.85971591099991],[-70.2795448999999,-34.85624951199992],[-70.27973049799994,-34.85296585599991],[-70.27413633399993,-34.84694201699995],[-70.27310607899994,-34.84272798599994],[-70.26924849699992,-34.83921304699993],[-70.26856321199995,-34.83650046099996],[-70.26526527899995,-34.835969364999926],[-70.26256696999991,-34.833428100999924],[-70.2636605699999,-34.83018441899992],[-70.26120496699991,-34.82781447599996],[-70.25979156699992,-34.823824120999916],[-70.26069100399991,-34.820026499999926],[-70.25687910699992,-34.81406166799991],[-70.25872080899995,-34.807724210999936],[-70.25464621999993,-34.80577543299995],[-70.24825498899992,-34.79879504599995],[-70.25298059799991,-34.79368396399991],[-70.2701669679999,-34.79227770199992],[-70.2786330909999,-34.78788045899995],[-70.28074890799991,-34.78275224399994],[-70.28261202499993,-34.78118322699993],[-70.29287701999993,-34.77966988999992],[-70.30016878299995,-34.77195385099992],[-70.30380731299994,-34.77231021699993],[-70.3094352139999,-34.769741826999905],[-70.30862143799993,-34.75659435299991],[-70.3062657719999,-34.74740725399994],[-70.29372505999993,-34.73907247899996],[-70.28854973199992,-34.73858421299991],[-70.28229650899993,-34.735643198999924],[-70.2702226479999,-34.73689955499992],[-70.26412218599995,-34.73199976899991],[-70.25940847399994,-34.73092663199992],[-70.25818067199992,-34.72947040099996],[-70.26234948699994,-34.72327571299991],[-70.25804635899993,-34.720938023999906],[-70.25340937599992,-34.70780683599992],[-70.25430881299991,-34.706346323999924],[-70.2532907659999,-34.703452443999936],[-70.25571249799992,-34.70164904199993],[-70.2582999999999,-34.69617999999991],[-70.26728303899995,-34.69383016499995],[-70.27113376299991,-34.68956308899993],[-70.28512004999993,-34.68460137699992],[-70.28855235999993,-34.665674226999954],[-70.29491076699992,-34.665263661999916],[-70.29670532199992,-34.661342334999915],[-70.30479999899995,-34.655409999999904],[-70.30239665899995,-34.64667549599994],[-70.3029469299999,-34.64478715699994],[-70.31346252799995,-34.642284084999915],[-70.3198119139999,-34.63854473199996],[-70.3217688659999,-34.63476008999993],[-70.33022963399992,-34.6288697409999],[-70.33570578599995,-34.62694454399991],[-70.33445307999995,-34.624348479999924],[-70.33494895899992,-34.62234935899994],[-70.34513999899991,-34.61979999999994],[-70.3641665259999,-34.62447275299991],[-70.37266414699991,-34.622644700999956],[-70.37615999999991,-34.62044999999995],[-70.37487407799995,-34.61838336299991],[-70.3765314929999,-34.61345318799994],[-70.37806058599995,-34.61204119899992],[-70.38282858899993,-34.611593769999956],[-70.3845565819999,-34.607210309999914],[-70.38762562399995,-34.603994351999916],[-70.39780626699991,-34.599876672999926],[-70.4033264329999,-34.603235928999936],[-70.40947588499995,-34.595889804999956],[-70.41752200399992,-34.59053707299995],[-70.42415391499992,-34.589214847999926],[-70.43000649699991,-34.59048119399995],[-70.43606999999992,-34.58641999999992],[-70.44601973199991,-34.58701433999994],[-70.4522741049999,-34.590442657999915],[-70.46744000199993,-34.58984999799992],[-70.47083774099991,-34.59410225699992],[-70.4727499999999,-34.599749999999915],[-70.47564502499995,-34.60014200199993],[-70.48194463399994,-34.60745098499996],[-70.48634921599995,-34.605765953999935],[-70.4950608179999,-34.59709340799992],[-70.51348660499991,-34.596555132999924],[-70.5175599989999,-34.60280999999992],[-70.5207914149999,-34.605312942999944],[-70.52200999999991,-34.608589999999936],[-70.53757907199991,-34.602245584999935],[-70.5438747739999,-34.59666127499992],[-70.54882720499995,-34.59605298199995],[-70.5537303559999,-34.58817301999994],[-70.5650712069999,-34.58172980499995],[-70.57237239799991,-34.58098221899991],[-70.57375144199995,-34.57803396699995],[-70.5756855859999,-34.57715691499993],[-70.59682960499993,-34.57803170699992],[-70.60137993399991,-34.58120910899993],[-70.60764519399993,-34.58329977099993],[-70.6166625219999,-34.58524547099995],[-70.62495474099995,-34.585311145999924],[-70.62777808099992,-34.588487983999926],[-70.6269999989999,-34.59574999999995],[-70.63614199699992,-34.59146434099995],[-70.64593000099995,-34.591910008999946],[-70.64236548699995,-34.58404561499992],[-70.64193423699993,-34.57743313499992],[-70.64489586999991,-34.568331422999904],[-70.64535604999992,-34.56112083499994],[-70.65528591099991,-34.55348914399991],[-70.65724304699995,-34.54949972599991],[-70.6600876789999,-34.54833398099993],[-70.6738999989999,-34.54636999999991],[-70.68233999899991,-34.549729999999954],[-70.69564733199991,-34.550541205999934],[-70.70347947199991,-34.55423719399994],[-70.70912000999994,-34.54999002699992],[-70.7167899989999,-34.56167999999991],[-70.71839531299992,-34.56898223099995],[-70.72780999999992,-34.57806999999991],[-70.7351354509999,-34.57684314499994],[-70.7348262079999,-34.57265983599996],[-70.73682187999992,-34.56655749499993],[-70.73961208999992,-34.56556869699995],[-70.7451447329999,-34.5661184569999],[-70.75268916399995,-34.573009586999945],[-70.75778206399991,-34.57103822999994],[-70.7610173999999,-34.5722905959999],[-70.76816022999992,-34.565039774999946],[-70.77095602399993,-34.56365870399992],[-70.77362337799991,-34.563999588999934],[-70.77520847199992,-34.55795007699993],[-70.7830660489999,-34.55121591999995],[-70.78604978899995,-34.55094689799995],[-70.7899490769999,-34.55292430199995],[-70.8039741739999,-34.55319234399991],[-70.8104499989999,-34.549759999999935],[-70.8127899989999,-34.54402999999991],[-70.81660380599993,-34.541207226999916],[-70.81691675499991,-34.53763178899993],[-70.82089926499992,-34.53388304199996],[-70.82748999899991,-34.52948999999995],[-70.84483966199991,-34.52387966799995],[-70.84811995799993,-34.51900532399992],[-70.86151533399993,-34.50643132399995],[-70.86207131399993,-34.499498270999936],[-70.86358528799991,-34.49779847299993],[-70.86828973799993,-34.49646363399995],[-70.87429833499993,-34.49934936199992],[-70.89080615099994,-34.49747554699991],[-70.89319345899992,-34.49446527799995],[-70.8957917489999,-34.49426549399993],[-70.89638009999993,-34.49017519599994],[-70.90504999899991,-34.47723999999994]]]}},{"type":"Feature","properties":{"cut":13203,"comuna":"SAN JOSÉ DE MAIPO"},"geometry":{"type":"Polygon","coordinates":[[[-70.03119524099992,-34.288302426999905],[-70.02518843799993,-34.28584319299995],[-70.02348950299995,-34.281974189999914],[-70.01903907799993,-34.28106811899994],[-70.01962906599994,-34.276160690999916],[-70.01482921599995,-34.27433469199991],[-70.01066159099992,-34.26582930899991],[-70.0061172959999,-34.26555947799994],[-70.00478955699992,-34.26268984799992],[-70.00243960099994,-34.261139390999915],[-69.98751597899991,-34.261366181999904],[-69.98547309199995,-34.260037224999905],[-69.98340426999994,-34.2543991199999],[-69.9763545209999,-34.25206793399991],[-69.97299948199992,-34.24956949999995],[-69.96782999999994,-34.25066999999996],[-69.9534270769999,-34.26043626099994],[-69.9464857129999,-34.2678815939999],[-69.94588608899994,-34.27002310899991],[-69.94267238899994,-34.27120665299992],[-69.9406022579999,-34.27483295199994],[-69.94034384799994,-34.28015675699993],[-69.9262972059999,-34.28278133099991],[-69.92319162199993,-34.28539347499992],[-69.92316782799992,-34.288010881999924],[-69.9210691429999,-34.28988113799994],[-69.91545361499993,-34.28931006799991],[-69.9088387139999,-34.290928100999906],[-69.89786559099991,-34.284813837999934],[-69.89931468299994,-34.269846076999954],[-69.8961024109999,-34.26498340999996],[-69.88684249999994,-34.26515473199993],[-69.8842203339999,-34.2635938059999],[-69.8787285379999,-34.26671565799995],[-69.8717614759999,-34.267153478999944],[-69.86964699799995,-34.265649210999925],[-69.86705966099993,-34.26570676599994],[-69.86518780599994,-34.26326540999992],[-69.8616899989999,-34.26399352499993],[-69.85973741299995,-34.26149033199994],[-69.85632431399995,-34.26165879799993],[-69.85383063899991,-34.255948091999926],[-69.84779632599992,-34.257128303999934],[-69.83178144699991,-34.25568219099995],[-69.82891054399994,-34.256610175999924],[-69.8274314709999,-34.255342399999904],[-69.82736484599991,-34.25199211899991],[-69.82394984299992,-34.24870655899991],[-69.81692567499994,-34.246879132999936],[-69.80734501299992,-34.24806124899993],[-69.80608865699992,-34.24716657099992],[-69.80523918999995,-34.24058403099991],[-69.8024936889999,-34.23527069399995],[-69.80504922999995,-34.231184682999924],[-69.80539187199992,-34.22670177899994],[-69.8017009319999,-34.22553203599995],[-69.80132299299993,-34.22248299499995],[-69.79901015699994,-34.22075550599993],[-69.7988245599999,-34.21880672799995],[-69.80052349499994,-34.21652244499995],[-69.79737879899994,-34.20875873999995],[-69.79940237199992,-34.204919240999914],[-69.80072313199992,-34.19460511099993],[-69.81140096299993,-34.18547690299994],[-69.81599034899995,-34.176717512999915],[-69.82092772999994,-34.174457023999935],[-69.82373906299995,-34.17051330599992],[-69.82744150399992,-34.168062222999936],[-69.83314745199993,-34.16740097099995],[-69.83497487799991,-34.16524517999994],[-69.83501116499991,-34.16054955099992],[-69.83642456399991,-34.158179607999955],[-69.84955823699994,-34.15127762499992],[-69.86063438999992,-34.141892792999954],[-69.86373078299994,-34.14042585399994],[-69.8652012899999,-34.14189636099991],[-69.86986122699994,-34.141068307999944],[-69.86993255699991,-34.137274015999935],[-69.87335546499992,-34.13253913099993],[-69.87145665499992,-34.13034764799994],[-69.87097124499991,-34.124238618999925],[-69.8637328499999,-34.12144521599993],[-69.85640030199994,-34.11524338799995],[-69.86003999999991,-34.10317999999995],[-69.85294236599992,-34.09859766699992],[-69.84201992699991,-34.09553696599994],[-69.8395728879999,-34.091812157999925],[-69.83410360399995,-34.08741385499991],[-69.8343761459999,-34.07689341299994],[-69.8322441489999,-34.071597683999926],[-69.83336725399994,-34.07041747099993],[-69.8356705729999,-34.071236005999936],[-69.84431467899992,-34.07031753399991],[-69.84884326899993,-34.06805704599992],[-69.8507549279999,-34.06196895799991],[-69.85371021799995,-34.05891848899995],[-69.8545668239999,-34.05606313499993],[-69.84930821599994,-34.05109719999996],[-69.84692649399994,-34.04125313199995],[-69.84369994499991,-34.036112543999934],[-69.83650445499995,-34.0321150499999],[-69.82872361799991,-34.02498951599995],[-69.82179367599991,-34.01553401399991],[-69.82271690599993,-34.01090786599991],[-69.83995857699995,-34.007021075999944],[-69.84012989799993,-34.002920788999916],[-69.84225713599994,-33.99933874799996],[-69.84087660499995,-33.996627890999946],[-69.8411967749999,-33.99167956799994],[-69.84524229899995,-33.98267161499996],[-69.8536988429999,-33.97222453299992],[-69.85491706699992,-33.965790446999904],[-69.85421086499991,-33.963707522999925],[-69.86903754999992,-33.9631761949999],[-69.87498751499993,-33.96471144699996],[-69.87776675899994,-33.96766957099993],[-69.88125575299995,-33.975842153999906],[-69.88292185899991,-33.976365797999904],[-69.8968224759999,-33.97265235799995],[-69.90089518699995,-33.97012495799993],[-69.90542563899993,-33.96490912599995],[-69.90589675799993,-33.963298222999924],[-69.90085332099994,-33.95672075899995],[-69.90086990799995,-33.94950347999992],[-69.89461045299993,-33.944892334999906],[-69.89214351099992,-33.94042540699991],[-69.89419853999993,-33.93513368099991],[-69.89163910099995,-33.93207043599995],[-69.89186392099992,-33.92351661299995],[-69.89047005399993,-33.92108526699991],[-69.88247172299992,-33.91519199599992],[-69.87547997899992,-33.91405089999995],[-69.87313732199993,-33.906893572999934],[-69.85531211199992,-33.892220667999936],[-69.85679056099991,-33.88557506199993],[-69.86768359799993,-33.88129533099993],[-69.86961096099992,-33.875656008999954],[-69.8695239569999,-33.86845699199995],[-69.87315467499991,-33.86086264399995],[-69.88402184599994,-33.85578929899992],[-69.88581180099993,-33.85064006999994],[-69.89829824599991,-33.847346813999934],[-69.89896768699992,-33.84250643599995],[-69.89526014199993,-33.83648881399995],[-69.89572328199995,-33.8321038439999],[-69.89785390599991,-33.829675066999926],[-69.89520245799991,-33.82779929299994],[-69.89457675299991,-33.82457062799995],[-69.89668319899994,-33.821548126999915],[-69.89668312499992,-33.81389576499993],[-69.89634045899993,-33.811440159999904],[-69.89308531299992,-33.807499796999934],[-69.89544946599995,-33.79887659099995],[-69.89350774699994,-33.79105292699995],[-69.8952805859999,-33.78956473099993],[-69.8983617689999,-33.782029946999955],[-69.9025876849999,-33.780430906999925],[-69.9039582229999,-33.776890248999905],[-69.9039010539999,-33.770380030999945],[-69.90064590599991,-33.76632545399991],[-69.89978924499991,-33.76078606699991],[-69.89645702999991,-33.75570770999991],[-69.87777766699992,-33.739128087999916],[-69.87671660699993,-33.737403479999955],[-69.87765657099993,-33.73357346499995],[-69.87461298499994,-33.729895779999936],[-69.87443651099994,-33.72786348499994],[-69.86980366699993,-33.72410083799991],[-69.86664846499991,-33.717961843999944],[-69.86443555499994,-33.71717664199991],[-69.86447636999992,-33.71527355699993],[-69.86889698099992,-33.709728990999906],[-69.86872242999993,-33.70721983899995],[-69.87091352099992,-33.7038337269999],[-69.87348618199991,-33.693793430999904],[-69.87719516199991,-33.688467078999906],[-69.88230622999993,-33.68595431499995],[-69.88446609999994,-33.68319330499992],[-69.8810572559999,-33.67369781199994],[-69.8823259799999,-33.671153302999926],[-69.87925613899995,-33.65859902599993],[-69.87537548899991,-33.65816456099992],[-69.86996928299993,-33.651859981999905],[-69.8774716819999,-33.64609089499993],[-69.87382624899993,-33.63659210499992],[-69.87609557799993,-33.63049328799991],[-69.87503362199993,-33.623897865999936],[-69.8808502569999,-33.61840911299993],[-69.87523461699993,-33.60783291999991],[-69.87451119699995,-33.601391237999906],[-69.87119894199992,-33.59733666099993],[-69.86736826099991,-33.59557782399992],[-69.86527870499992,-33.584049782999955],[-69.86902427599995,-33.571441972999935],[-69.86921492899995,-33.564283229999944],[-69.87406485399993,-33.55560316699996],[-69.87191476699991,-33.54704317199992],[-69.87166468899994,-33.53889315899994],[-69.8592980599999,-33.531729594999945],[-69.8572421579999,-33.52727525499995],[-69.85321183299993,-33.52359129799993],[-69.8485896059999,-33.52096303999991],[-69.83852502099995,-33.51819543499994],[-69.8353700529999,-33.515454216999956],[-69.83238804899992,-33.50660822599991],[-69.83216457999993,-33.49054897599996],[-69.82995187299991,-33.4843228119999],[-69.82977401499994,-33.47915928899994],[-69.8268612199999,-33.474565523999956],[-69.81733159099991,-33.47230731099995],[-69.81526850099993,-33.469140316999926],[-69.81852362099994,-33.46337251199992],[-69.82120765899992,-33.46148798699994],[-69.82212432699993,-33.45405593899994],[-69.81879308099991,-33.45053433599992],[-69.8145338459999,-33.44219194599992],[-69.82071281899994,-33.43208735899992],[-69.82002753899991,-33.430202822999945],[-69.8072575029999,-33.42416398799992],[-69.79856659799992,-33.424450908999916],[-69.7957218379999,-33.42194689799993],[-69.79773378699991,-33.417282782999905],[-69.79711028399993,-33.41269081099995],[-69.80004663499994,-33.40484274499994],[-69.80712144199993,-33.39662382299991],[-69.81572846099994,-33.39113845499992],[-69.7952431679999,-33.396852216999946],[-69.78482521099994,-33.39110871199995],[-69.77822529899993,-33.3837746449999],[-69.77521027799992,-33.37686357699994],[-69.77035617899992,-33.357522365999955],[-69.76961359599994,-33.34592748999995],[-69.7698135569999,-33.34316491799996],[-69.77663498399994,-33.332693184999926],[-69.77667499499995,-33.32864318399993],[-69.77900805199994,-33.32650868499991],[-69.78376845799994,-33.31671583599996],[-69.79093510099995,-33.308888776999936],[-69.8000451229999,-33.287533244999906],[-69.80851336799992,-33.29007913699991],[-69.81437435999993,-33.289319648999935],[-69.81907222599995,-33.28633148599994],[-69.82379514799993,-33.28090331399994],[-69.82765550899995,-33.2806422349999],[-69.83336161999995,-33.274101523999946],[-69.84098631099994,-33.27167364199994],[-69.84471521799992,-33.27512945099994],[-69.85037644199991,-33.276051587999916],[-69.85691916099995,-33.279782893999936],[-69.85950173499992,-33.28312786799995],[-69.87452089199991,-33.27626074299991],[-69.88058851799991,-33.276360680999915],[-69.88627220199993,-33.27858373399994],[-69.88963998799994,-33.27611797499992],[-69.90433547899994,-33.272929734999934],[-69.90837266499994,-33.27001773799992],[-69.91801642299993,-33.244701634999956],[-69.92134642699995,-33.2458095689999],[-69.91517418599994,-33.25623752799993],[-69.9172813859999,-33.264649698999904],[-69.91632760999994,-33.26699642199992],[-69.92385741499993,-33.26852403599992],[-69.93007334099991,-33.27498611799996],[-69.93649877099995,-33.275980912999955],[-69.93869649999993,-33.27767017699995],[-69.9424379049999,-33.284299508999936],[-69.94943261999993,-33.281325060999905],[-69.95274481199993,-33.287435527999946],[-69.96159639399991,-33.29257519199996],[-69.96751132899993,-33.29892961599995],[-69.97021951099993,-33.3098786619999],[-69.98114293899994,-33.312633294999955],[-69.98905778699992,-33.31731616999991],[-69.99442493299995,-33.31764934499995],[-70.00025779499992,-33.32267073699995],[-70.0034557919999,-33.32215678299991],[-70.00922362499995,-33.31627477099994],[-70.00779595999995,-33.31216305599992],[-70.01171963599995,-33.299769244999936],[-70.00627635699993,-33.285471567999934],[-70.0091016049999,-33.285180262999916],[-70.01310700899995,-33.28166789399995],[-70.0236718349999,-33.276242752999906],[-70.0274472879999,-33.27686965099991],[-70.03360847999994,-33.27144578899993],[-70.03834836999994,-33.270589196999936],[-70.03440802799992,-33.25522737999995],[-70.02834549599993,-33.24746580699991],[-70.02915422099994,-33.240093989999934],[-70.02647765699993,-33.23601549499995],[-70.02786964199993,-33.23262476399992],[-70.0390214489999,-33.22825657299995],[-70.04485870499991,-33.22804444399992],[-70.04817091899992,-33.226102812999954],[-70.05459988899992,-33.22612981299994],[-70.0557873809999,-33.22181249199991],[-70.06473203599995,-33.20508745899991],[-70.06440317999994,-33.199463505999915],[-70.06036999399993,-33.19393125999994],[-70.06553160899995,-33.17990324099992],[-70.06106308499994,-33.177420422999944],[-70.05718771099993,-33.171296265999956],[-70.06210522499993,-33.166483066999945],[-70.06753042999992,-33.15557563199991],[-70.06730200699991,-33.15386241899995],[-70.0640046769999,-33.151133201999926],[-70.05644983399992,-33.14882689499996],[-70.0570227629999,-33.14381154199992],[-70.05279498199991,-33.139856326999904],[-70.05234000799993,-33.135333705999926],[-70.05805072999993,-33.130391381999914],[-70.07404073299995,-33.12313883199994],[-70.07592527399993,-33.121082981999905],[-70.07650766299992,-33.116995353999926],[-70.07335547699995,-33.11354484099991],[-70.07187070799995,-33.108348092999904],[-70.06598909299993,-33.10337799999991],[-70.07127211199992,-33.09499490899992],[-70.06734449299995,-33.088553858999944],[-70.07082734699992,-33.081709978999925],[-70.07129973699995,-33.07499755799995],[-70.07506883799994,-33.06409011799991],[-70.09307653099995,-33.05145360999995],[-70.1024875999999,-33.05278402399995],[-70.1079179859999,-33.05900423999992],[-70.11601522599994,-33.06450438999991],[-70.11334219699995,-33.07204737099994],[-70.12486238499991,-33.075404103999915],[-70.1291010509999,-33.08047712299992],[-70.13039520599995,-33.08894433899991],[-70.1340816259999,-33.094035482999914],[-70.14726130199995,-33.09336913599992],[-70.15843414999995,-33.09885627999995],[-70.15658153699991,-33.103505594999945],[-70.15263752699991,-33.107249263999904],[-70.15517327599991,-33.11313203699996],[-70.17502060599992,-33.107528706999915],[-70.17707866399991,-33.10613087799993],[-70.17837133899991,-33.10267681199991],[-70.18353004599993,-33.101905666999926],[-70.18970550899991,-33.10915311799994],[-70.20010226799991,-33.110431856999924],[-70.20515654999991,-33.12461811599991],[-70.21833315999993,-33.12905565999995],[-70.22282999999993,-33.13487999999995],[-70.22727341599995,-33.13475772999993],[-70.22884342599991,-33.13700353599995],[-70.23490952399993,-33.139493397999956],[-70.2339932939999,-33.14222826999992],[-70.22811727899995,-33.14415605799991],[-70.2262035679999,-33.1494371629999],[-70.22967383199995,-33.158907032999934],[-70.23727882399993,-33.163625715999956],[-70.24110014299993,-33.168923666999945],[-70.2440493869999,-33.179688927999905],[-70.24232425899993,-33.189474624999946],[-70.2397980739999,-33.19208819399995],[-70.2401679429999,-33.19666913099991],[-70.2372964619999,-33.20157133899994],[-70.23073386199991,-33.20358188499995],[-70.22612304199993,-33.211315337999906],[-70.21801326099995,-33.21790760199991],[-70.21737282499993,-33.222748054999954],[-70.22020295899995,-33.22427780899994],[-70.22276361799993,-33.22791029299992],[-70.22292460199992,-33.232140691999916],[-70.22031451099991,-33.237426687999914],[-70.21662727199993,-33.238806525999905],[-70.21461500299995,-33.244138628999906],[-70.20937386499992,-33.24787191999991],[-70.20819404999992,-33.25005400999993],[-70.2099599739999,-33.25331514599992],[-70.21051773399995,-33.259277063999946],[-70.20466994599991,-33.26221301999993],[-70.1983613669999,-33.27143042799992],[-70.2004451979999,-33.278565227999934],[-70.19893451599995,-33.28235317599996],[-70.19927353999992,-33.29025205599993],[-70.1930001849999,-33.29702076499996],[-70.18794283299991,-33.30496065999995],[-70.18670953999992,-33.311298595999915],[-70.1820496759999,-33.322032830999945],[-70.1827832969999,-33.3263011759999],[-70.18123003599993,-33.33101787399994],[-70.18205351299991,-33.33799744699991],[-70.17588586699992,-33.34555406699991],[-70.17614889999993,-33.3471978739999],[-70.18024021499991,-33.35054480499991],[-70.1772302249999,-33.35644734099992],[-70.1805344359999,-33.35910053899994],[-70.1815942959999,-33.36240135299994],[-70.1868904829999,-33.363054692999924],[-70.19180050099993,-33.366569272999925],[-70.19437453899991,-33.37239011999992],[-70.19341850199993,-33.376603787999954],[-70.19791662799992,-33.38000630699992],[-70.1987484249999,-33.384233406999954],[-70.20316925499992,-33.391415895999955],[-70.2143791119999,-33.39593992499994],[-70.21774151799991,-33.40055732099995],[-70.2169729549999,-33.40691983699992],[-70.21895013199992,-33.41220586299994],[-70.23578665199994,-33.423498113999926],[-70.23828539199991,-33.42937928099991],[-70.24279144399992,-33.432716754999944],[-70.24320908099992,-33.43600858599996],[-70.25409589599991,-33.439319388999934],[-70.25760774699995,-33.44366403499993],[-70.2667957729999,-33.445312919999935],[-70.27303400599993,-33.44933455699993],[-70.2760025629999,-33.453021719999924],[-70.2816183139999,-33.4553624479999],[-70.2853074109999,-33.45230740599993],[-70.29225636399991,-33.45098454899994],[-70.29832781199991,-33.452000754999915],[-70.29917195299993,-33.45822104599995],[-70.30462556799995,-33.46447203899993],[-70.3150171819999,-33.466505756999936],[-70.32078878199991,-33.4723900969999],[-70.3345208689999,-33.476660576999905],[-70.34141148999993,-33.48526547299991],[-70.34903922899991,-33.49021417499995],[-70.3509228389999,-33.49048183499991],[-70.3537892789999,-33.4863720269999],[-70.36102469899993,-33.48709295999993],[-70.3727138829999,-33.48283355099994],[-70.37927393899992,-33.483024765999915],[-70.38848178299992,-33.486647381999944],[-70.3936987049999,-33.4906071929999],[-70.39785153899993,-33.48911573399994],[-70.40295107799994,-33.48946963299994],[-70.41910911699995,-33.48184016599993],[-70.42846347099993,-33.484275391999915],[-70.43007946999995,-33.481721405999906],[-70.43569120299992,-33.482052652999926],[-70.43898316499991,-33.486294493999935],[-70.43712010099995,-33.49735020399993],[-70.43896304799995,-33.5001667489999],[-70.4430847129999,-33.50412372799991],[-70.4504946159999,-33.50601075399993],[-70.46436713199995,-33.51625058199994],[-70.46923006599991,-33.5268404869999],[-70.47988073199991,-33.530698670999925],[-70.48010526399992,-33.536605127999906],[-70.48596090399991,-33.53911631299991],[-70.4876599989999,-33.543429999999944],[-70.48595154199995,-33.546543958999905],[-70.48860917999991,-33.55911904399994],[-70.49253275199993,-33.56194940799992],[-70.50011194799993,-33.571291447999954],[-70.5008994879999,-33.57650773899991],[-70.4977033319999,-33.58345543099995],[-70.49701465899994,-33.60032848199995],[-70.49098739499993,-33.59871454699993],[-70.48682775499992,-33.594384609999906],[-70.48032308199993,-33.59482785199992],[-70.47762498899993,-33.58935417999993],[-70.47354760099995,-33.59213858399994],[-70.4604371339999,-33.5910069759999],[-70.45935315999992,-33.588807767999924],[-70.46187586699995,-33.581593478999935],[-70.45316541699992,-33.58292069599992],[-70.4488379679999,-33.579391803999954],[-70.44382061099992,-33.57867918699992],[-70.44389398699991,-33.58723147999996],[-70.43980215899995,-33.60303413799994],[-70.44060702999991,-33.60970297199992],[-70.43629567399995,-33.62086253699994],[-70.42782138299992,-33.61994268099994],[-70.4231342349999,-33.63551047199991],[-70.42098595899995,-33.63724453499992],[-70.41636690899992,-33.63814751599995],[-70.4106105429999,-33.645164602999955],[-70.40744157699993,-33.646897818999946],[-70.41325090999993,-33.65501859299991],[-70.42157960499992,-33.66023433599992],[-70.42796273099992,-33.66052864599993],[-70.4321378539999,-33.66463341399992],[-70.43254430999991,-33.66719328499994],[-70.43027117999992,-33.669834744999946],[-70.43097835099991,-33.672382410999944],[-70.43754587099994,-33.677674632999924],[-70.44083195199994,-33.682711138999935],[-70.43852654499995,-33.68853318999993],[-70.43337342699994,-33.69564298799992],[-70.40932756699993,-33.70344258299991],[-70.40100732799993,-33.70871260699994],[-70.40003975499991,-33.71202113999993],[-70.40348205899994,-33.71761228699995],[-70.40197522099993,-33.72773650799991],[-70.40418382699994,-33.730523630999926],[-70.40254370899993,-33.733717019999915],[-70.40299524999995,-33.74212624599994],[-70.39923830499993,-33.749624541999935],[-70.40331223399994,-33.75454567799994],[-70.40157570499991,-33.75654597099992],[-70.40398026899993,-33.758212303999926],[-70.40204238099994,-33.762864358999934],[-70.4072853159999,-33.77647850199992],[-70.40638677699991,-33.78372840199995],[-70.40258192099992,-33.79021364199991],[-70.40578115599993,-33.795779198999924],[-70.4029613909999,-33.802202752999904],[-70.40289049199993,-33.813059568999904],[-70.40618355099991,-33.81908796399995],[-70.40838225499994,-33.827207994999924],[-70.40723014999992,-33.83110197499991],[-70.40896272599991,-33.836186263999934],[-70.41255589399992,-33.839568278999934],[-70.42011288499992,-33.84162143499992],[-70.42720978599993,-33.851563864999946],[-70.43378643699992,-33.85355318499995],[-70.42302598599991,-33.854513538999925],[-70.41908298899995,-33.85602876299993],[-70.41095611499992,-33.870670150999956],[-70.4011726949999,-33.876763775999905],[-70.39809572099995,-33.88028753099991],[-70.39092225399992,-33.88180694399995],[-70.38385087899991,-33.879366294999954],[-70.3748846599999,-33.88364140099992],[-70.3761170219999,-33.88792528599993],[-70.37135291699991,-33.89493926699993],[-70.37258414399992,-33.900080819999914],[-70.36843251399995,-33.90698658799994],[-70.3750113179999,-33.911021958999925],[-70.37570771499992,-33.91542404899991],[-70.37861836499991,-33.91877048799995],[-70.37670193899993,-33.92229502999993],[-70.3762678789999,-33.92795809099994],[-70.3682609839999,-33.93746002499995],[-70.36576265899993,-33.944218065999905],[-70.36238187099991,-33.948293830999944],[-70.35934933199991,-33.95085992799994],[-70.35028582099994,-33.95302332999995],[-70.34675025999991,-33.95642656699994],[-70.34641172199991,-33.96193354299993],[-70.35080263299994,-33.96728654499992],[-70.34972498999991,-33.970989062999934],[-70.34046152099995,-33.979552069999954],[-70.32937219999991,-33.981304818999945],[-70.32717964799991,-33.99191087899993],[-70.3210995789999,-33.99929271099995],[-70.32601453899991,-34.005507232999946],[-70.32764623999992,-34.009738375999916],[-70.32205308899995,-34.01390292699995],[-70.3213611779999,-34.01631415199995],[-70.3257260229999,-34.019790806999936],[-70.33094049699992,-34.02086686999991],[-70.33903329999993,-34.029588720999925],[-70.33960278299992,-34.03321865499993],[-70.34446571299992,-34.03903230299994],[-70.34161176099991,-34.04236285399992],[-70.34022580099992,-34.053242293999915],[-70.3370567419999,-34.055778877999956],[-70.32926707999991,-34.058792498999935],[-70.32598240099992,-34.05917731899996],[-70.32299803299992,-34.057281134999926],[-70.31489756499991,-34.05724033999991],[-70.31353053299995,-34.0620962669999],[-70.31110016999992,-34.06319219799991],[-70.30833091999995,-34.06689591499992],[-70.3039120489999,-34.06570300799996],[-70.30399393599993,-34.06254205399995],[-70.3020838189999,-34.06068568399991],[-70.28743863499994,-34.05842169999994],[-70.27755498899995,-34.063740939999946],[-70.27066572399991,-34.06547937699992],[-70.26641877399993,-34.070959141999936],[-70.26184433399993,-34.07125438299994],[-70.25926478199995,-34.06739286299995],[-70.25606223299991,-34.0657227449999],[-70.25279038699995,-34.059787316999916],[-70.24805502699991,-34.05734841099991],[-70.24809477399992,-34.047509274999925],[-70.24516069599991,-34.042472827999916],[-70.24573146199992,-34.03731827599995],[-70.2442430829999,-34.034386007999956],[-70.24216259499991,-34.033343987999956],[-70.21480704899994,-34.030220293999946],[-70.21013481699993,-34.03123854899991],[-70.20465972599993,-34.03450469699993],[-70.18643296699992,-34.032436324999935],[-70.1802886879999,-34.035528008999904],[-70.17472284399992,-34.04206908899994],[-70.1693513649999,-34.04517462299992],[-70.17019693599991,-34.048257959999944],[-70.1745335889999,-34.053398071999936],[-70.17490540499995,-34.058704124999906],[-70.17106577899995,-34.06808328699992],[-70.1721413699999,-34.071526149999954],[-70.16486439699992,-34.079886366999915],[-70.1642023039999,-34.083800477999944],[-70.16094524899995,-34.087375520999956],[-70.15865197699992,-34.093217144999926],[-70.16463644099991,-34.095702150999955],[-70.1639283479999,-34.10151722099994],[-70.15808345799991,-34.111201216999916],[-70.14454987899995,-34.1166711969999],[-70.14166139899993,-34.12049699399995],[-70.1501122379999,-34.12464793599992],[-70.15797896499993,-34.13275146299992],[-70.16171481099991,-34.13423428199991],[-70.16463024199993,-34.14043754699992],[-70.16026924399995,-34.149614509999935],[-70.16277794599995,-34.15318361499993],[-70.16422261699995,-34.159413328999904],[-70.15791951299991,-34.159445010999946],[-70.1539802069999,-34.16100928399993],[-70.15283932199992,-34.1641254349999],[-70.1496611259999,-34.16723621999995],[-70.15013465099992,-34.16971370099992],[-70.1458188169999,-34.173532087999945],[-70.14562317899993,-34.17685101399991],[-70.14746392899991,-34.17993595999991],[-70.14276216999991,-34.18099863899994],[-70.13585995999995,-34.187971353999956],[-70.13171084699991,-34.189546795999945],[-70.12545875599994,-34.18850029799995],[-70.11754526699991,-34.19013931999996],[-70.1149467589999,-34.20095694299994],[-70.11047496799995,-34.20258121199993],[-70.09387701599991,-34.20397674499992],[-70.08795077299993,-34.202779681999914],[-70.08212209899995,-34.199257952999915],[-70.07773139999995,-34.198170441999935],[-70.07172631999993,-34.202513953999926],[-70.05037015999994,-34.22654792599991],[-70.05136755899991,-34.23714504199995],[-70.0492920069999,-34.24350464399993],[-70.05201580799991,-34.251990485999954],[-70.05199326999991,-34.255550495999955],[-70.05419526999992,-34.25852879999991],[-70.05252701899991,-34.267133034999915],[-70.05327836299995,-34.27936075899993],[-70.05153425399993,-34.28077506199992],[-70.04547117899995,-34.28107607299995],[-70.03119524099992,-34.288302426999905]]]}},{"type":"Feature","properties":{"cut":13502,"comuna":"ALHUÉ"},"geometry":{"type":"Polygon","coordinates":[[[-71.00857021199994,-33.892225570999926],[-71.0148800039999,-33.88890999799992],[-71.02016638299995,-33.88979247899994],[-71.02480448099993,-33.89179928599992],[-71.0303858389999,-33.89841023199995],[-71.0329906529999,-33.89943138199993],[-71.04108051499992,-33.89914685999992],[-71.0566899239999,-33.89332712099991],[-71.0618918749999,-33.893417160999945],[-71.06882190199991,-33.89061564399992],[-71.07422669899995,-33.89367172699991],[-71.07994999999994,-33.89288999999991],[-71.0849122329999,-33.893944664999935],[-71.08874999999995,-33.90193999999991],[-71.0886351389999,-33.90775978599993],[-71.0944021169999,-33.92609569199993],[-71.0977982629999,-33.929159117999916],[-71.09896506699994,-33.93297625699995],[-71.1055068849999,-33.93800002899991],[-71.10943920199992,-33.943404992999945],[-71.11465651799995,-33.946331878999956],[-71.1266129569999,-33.944037384999945],[-71.14272930699991,-33.94914879899994],[-71.14927999999992,-33.94711999999993],[-71.1577200719999,-33.94864954199994],[-71.16590914499994,-33.9539830569999],[-71.16624479099994,-33.96094120099991],[-71.1730333779999,-33.96365788599991],[-71.18037175499995,-33.96260204399994],[-71.18465968899994,-33.95805727299995],[-71.19386371299993,-33.96137600199995],[-71.2020477559999,-33.95993416299996],[-71.20707588899995,-33.96064446399993],[-71.21138000699995,-33.96643186999995],[-71.21461708299995,-33.973731743999906],[-71.21318726999993,-33.97834660099994],[-71.20874999999995,-33.98439000099995],[-71.20764659299994,-33.98928679099993],[-71.20834858599994,-33.99150272899993],[-71.21022999999991,-33.99383999999992],[-71.21550998899994,-33.99526001299995],[-71.21909624799991,-33.998114897999926],[-71.2306665289999,-34.01095131099993],[-71.23922022499994,-34.01576880199991],[-71.24850566299995,-34.01293476699993],[-71.25832150999992,-34.017582242999936],[-71.26340249799995,-34.016267737999954],[-71.26739117099993,-34.01865749299992],[-71.27520769999995,-34.01755104299991],[-71.27931226999993,-34.01830057299992],[-71.28238177499992,-34.02119161799993],[-71.29059091599993,-34.0229048299999],[-71.29377969399991,-34.02671824799995],[-71.30029216899993,-34.02970373099993],[-71.3015099989999,-34.03125999999992],[-71.30071451599991,-34.034330961999956],[-71.29169999899995,-34.04525999999993],[-71.28281599999991,-34.04678974099994],[-71.27070633799991,-34.052375397999924],[-71.26677155699991,-34.062979095999935],[-71.27038816699991,-34.06535693899991],[-71.26963094299992,-34.07905866599992],[-71.26744968999992,-34.08363017699992],[-71.26062719299995,-34.085954330999925],[-71.25759486899994,-34.08869908399993],[-71.2507021749999,-34.091296480999915],[-71.24849068199995,-34.09383965099994],[-71.24270240699991,-34.095897229999935],[-71.23808745699995,-34.102235021999945],[-71.23207868199995,-34.106596864999915],[-71.2311619589999,-34.117922854999904],[-71.22823999999991,-34.11984999999993],[-71.22533443599991,-34.124326624999924],[-71.22195357699991,-34.12583554999992],[-71.2192432249999,-34.130500989999916],[-71.2165347429999,-34.131944871999906],[-71.21490824999995,-34.13588217799992],[-71.2119426129999,-34.13646644399995],[-71.20744384299991,-34.13468465099993],[-71.20535426499993,-34.135153155999944],[-71.20535542899995,-34.139272528999925],[-71.20195146499992,-34.1451911499999],[-71.19700604299993,-34.14935422299993],[-71.19027683299993,-34.15222712099995],[-71.1854495799999,-34.157339530999934],[-71.1745083429999,-34.159225430999925],[-71.16029268299991,-34.16399723899991],[-71.15371051499994,-34.16381579299991],[-71.1473791869999,-34.16600696499995],[-71.14350999899995,-34.164849999999944],[-71.1262506189999,-34.16680466199995],[-71.1162799999999,-34.162609999999916],[-71.11389228399992,-34.16645007499994],[-71.10590359999992,-34.16655243799994],[-71.09220943499992,-34.17416986999996],[-71.08982684999995,-34.18032264599992],[-71.0825737749999,-34.182434059999935],[-71.07877374199995,-34.181160158999944],[-71.07191028699992,-34.183885507999946],[-71.06775999999991,-34.179949999999906],[-71.06186469399995,-34.18026063499991],[-71.05415030899991,-34.17869690099991],[-71.0527123569999,-34.17342442499995],[-71.04785430299995,-34.17130352899994],[-71.04388213499993,-34.17242062799994],[-71.03577008899993,-34.16601996999992],[-71.03227003199993,-34.164740338999934],[-71.02772258099992,-34.16637711399994],[-71.02609523899991,-34.1702304179999],[-71.02490797999991,-34.17049376399996],[-71.00655999999992,-34.167749999999955],[-70.98382183799993,-34.17332876799992],[-70.96812207699992,-34.17169326299995],[-70.95802702099991,-34.16430861199996],[-70.9497930149999,-34.162738702999945],[-70.9411640269999,-34.15821625399991],[-70.93326962299994,-34.15126389699992],[-70.91453052699995,-34.14453919999994],[-70.91670365599992,-34.14098525499992],[-70.92929146799992,-34.1370628059999],[-70.93258786099994,-34.125411297999904],[-70.93513466699994,-34.122264386999916],[-70.93506201499991,-34.11677783299996],[-70.93880378799992,-34.113234546999934],[-70.93921690499991,-34.1083936199999],[-70.94151720099995,-34.10594732699991],[-70.94028221899993,-34.10230837699993],[-70.93798703099992,-34.100384722999934],[-70.93918781699995,-34.09564749599991],[-70.93723799999992,-34.092789231999916],[-70.93777046499991,-34.08935463599994],[-70.93483811899995,-34.08625050599994],[-70.9208225399999,-34.07834049399992],[-70.91326243099991,-34.07964894299994],[-70.90598008799992,-34.07623430199993],[-70.89993220499991,-34.078854107999916],[-70.89316040799991,-34.075619530999916],[-70.89131978899991,-34.061100876999944],[-70.88826740699994,-34.05796838099991],[-70.88937494699991,-34.052855536999914],[-70.89163202099991,-34.050817328999926],[-70.88832999899995,-34.03905999999995],[-70.88223219199995,-34.03982631899993],[-70.87680508699992,-34.037296056999935],[-70.87023374899991,-34.03743977599993],[-70.86301527899991,-34.031916365999905],[-70.84586611599991,-34.02834227899996],[-70.84124393999991,-34.03231699499992],[-70.8300089949999,-34.032092776999946],[-70.82242436099995,-34.03621249699995],[-70.81857971099993,-34.035833890999925],[-70.8125626769999,-34.026492180999924],[-70.80764016899991,-34.02533311199994],[-70.80849410999991,-34.021506109999905],[-70.8055799999999,-34.01564999999994],[-70.80703617899991,-34.00918509199994],[-70.80626823699993,-34.00747855399993],[-70.7932657639999,-33.99989365199991],[-70.79180093199994,-33.99321686199994],[-70.79762776399991,-33.98821747499994],[-70.79757999999993,-33.98526999999996],[-70.79581099199993,-33.98227462299991],[-70.79787330799991,-33.97496310699995],[-70.8101234799999,-33.97104586499995],[-70.8147951169999,-33.96653608399993],[-70.8244176199999,-33.962173751999956],[-70.82272714899995,-33.95651118399991],[-70.8237083759999,-33.954409332999944],[-70.83214685799993,-33.951801366999916],[-70.84626837899992,-33.95640491499995],[-70.85104018599992,-33.95947181899993],[-70.8567129729999,-33.966091828999936],[-70.8548146409999,-33.96869024599994],[-70.85587030699992,-33.9707080469999],[-70.86519569299992,-33.97435592499994],[-70.87123170799993,-33.97894679399991],[-70.8816746199999,-33.98398253699992],[-70.89537000099995,-33.988860006999914],[-70.90815732699991,-33.977001602999906],[-70.9144735189999,-33.97905888999992],[-70.92590333099992,-33.974703554999905],[-70.93407459899993,-33.977343935999954],[-70.9455939309999,-33.9743096869999],[-70.9481132869999,-33.97127521199991],[-70.95605481399991,-33.97255500499995],[-70.96314065099995,-33.97046782299992],[-70.96617962199991,-33.96695594699992],[-70.9617276429999,-33.96060905499991],[-70.96328759399995,-33.95659651199992],[-70.95463164699993,-33.94308022999991],[-70.95548369199992,-33.9409547809999],[-70.96155465899994,-33.9355679059999],[-70.96045333799992,-33.922651307999956],[-70.9658700029999,-33.91813999799996],[-70.97358814099994,-33.91723880599994],[-70.97783023599993,-33.91484117099992],[-70.99790606999994,-33.89502854999995],[-71.0066091409999,-33.89187156799994],[-71.00857021199994,-33.892225570999926]]]}}]}