{"type":"FeatureCollection","features":[{"type":"Feature","properties":{"name":"Rancagua","comuna":"Rancagua","cut":"06101","metro":"Gran Rancagua (Rancagua-Machalí)","es_bbox":false},"geometry":{"type":"Polygon","coordinates":[[[-70.8012,-34.0634],[-70.8036,-34.0713],[-70.8041,-34.0884],[-70.7946,-34.0983],[-70.7885,-34.1003],[-70.7831,-34.1131],[-70.769,-34.1096],[-70.7475,-34.1102],[-70.7312,-34.1055],[-70.7156,-34.106],[-70.7091,-34.1208],[-70.6938,-34.1294],[-70.6895,-34.1381],[-70.6836,-34.145],[-70.6782,-34.1601],[-70.696,-34.1696],[-70.7127,-34.1959],[-70.7243,-34.2067],[-70.7149,-34.217],[-70.7294,-34.2125],[-70.7355,-34.2037],[-70.7573,-34.1924],[-70.8017,-34.1893],[-70.8263,-34.1885],[-70.8427,-34.1931],[-70.8588,-34.1867],[-70.8707,-34.1778],[-70.8796,-34.1649],[-70.8828,-34.16240136986301],[-70.8828,-34.0605],[-70.80163021978022,-34.0605],[-70.8012,-34.0634]]]}},{"type":"Feature","properties":{"name":"Machalí","comuna":"Machalí","cut":"06108","metro":null,"es_bbox":false},"geometry":{"type":"Polygon","coordinates":[[[-70.7243,-34.2067],[-70.7127,-34.1959],[-70.696,-34.1696],[-70.6782,-34.1601],[-70.6836,-34.145],[-70.6405,-34.1487],[-70.6231,-34.151],[-70.5991,-34.1492],[-70.591,-34.150646428571434],[-70.591,-34.2472],[-70.64087619047619,-34.2472],[-70.6416,-34.2464],[-70.6617,-34.237],[-70.6749,-34.2232],[-70.6994,-34.2142],[-70.7149,-34.217],[-70.7243,-34.2067]]]}}]}